{"type":"FeatureCollection","id":"048d152d22cf57558680b41a26bfb0de","properties":{"id":"048d152d22cf57558680b41a26bfb0de","name":"Rutas Reserva","updated_date":"2026-09-01T17:54:12Z","time_created":"2025-07-02T22:37:22Z","notes":"","cover_photo_id":null,"deleted":false,"sync_to_mobile":null},"features":[{"type":"Feature","properties":{"id":"8b7ad9aaa39c4cbe274499de0216ac43","updated_date":"2026-09-01T17:57:10Z","time_created":"2025-07-03T17:50:09Z","last_updated_on_server":"2026-09-01T17:59:00.167701","db_insert_date":"2025-07-07T01:25:37Z","deleted":false,"title":"Sendero baño de bosque","public":true,"color":"{0.369, 0.478, 0.549, 1.000}","hexcolor":"#5E7A8C","is_active":true,"revision":1788285540,"notes":"","track_type":"","routing_mode":"pedestrian","uploaded_gpx_to_osm":null,"flag":null,"source":"iPhone16,1","cover_photo_id":null,"distance":681.8656135396733,"total_ascent":38.299999999999955,"total_descent":92.75,"stopped_time":1876.166666507721,"total_time":3321.0,"average_speed":0.20531936571504766,"moving_time":1444.833333492279,"moving_speed":0.47193375023508694,"activities":["hiking"],"imported":false,"folder":"048d152d22cf57558680b41a26bfb0de","privacy_level":"public","sync_to_mobile":null,"preferred_link":"/public/5oxHoXuAuE6nxFThYmiKUOh7","user_displayname":"Benjamín Guevara","username":"EarlyShore7952","user_email":"parenaslovecast@gmail.com","user_id":8299461,"created_by":{"id":8299461,"displayName":"Benjamín Guevara","link":"/profile/8299461/","image":"https://www.gaiagps.com/profile/8299461/photo/"},"favorite_count":0,"comment_count":0,"comments":[],"user_photo_count":2,"photos":[{"id":"2b634255fdde731a09e4a206d97cb2f6","time_created":"2025-07-03T18:24:03Z","title":"Mirador de aves","latitude":0.15537607347586518,"longitude":-78.84347073139126,"elevation":1407,"updated_date":"2025-07-07T01:25:38Z","last_updated_on_server":"2026-09-01T17:57:10.754999","deleted":false,"revision":1788285430,"notes":"","waypoint_id":"197c4f9b377bd392cd530ae6a4f823d0","imported":false,"public":false,"thumbnail_url":"https://www.gaiagps.com/api/objects/photo/2b634255fdde731a09e4a206d97cb2f6/image/100/?publickey=TWWihmxcMMQQ4w9I6iqy0dzz","web_url":"https://www.gaiagps.com/api/objects/photo/2b634255fdde731a09e4a206d97cb2f6/image/375/?publickey=TWWihmxcMMQQ4w9I6iqy0dzz","scaled_url":"https://www.gaiagps.com/api/objects/photo/2b634255fdde731a09e4a206d97cb2f6/image/1000/?publickey=TWWihmxcMMQQ4w9I6iqy0dzz","fullsize_url":"https://www.gaiagps.com/api/objects/photo/2b634255fdde731a09e4a206d97cb2f6/image/full/?publickey=TWWihmxcMMQQ4w9I6iqy0dzz"},{"id":"87341b11ad9c74b3617d1f10879f39a4","time_created":"2025-07-03T18:24:22Z","title":"Mirador de aves","latitude":0.155379179227439,"longitude":-78.84344249065617,"elevation":1409,"updated_date":"2025-07-07T01:25:38Z","last_updated_on_server":"2026-09-01T17:57:10.756999","deleted":false,"revision":1788285430,"notes":"","waypoint_id":"197c4f9b377bd392cd530ae6a4f823d0","imported":false,"public":false,"thumbnail_url":"https://www.gaiagps.com/api/objects/photo/87341b11ad9c74b3617d1f10879f39a4/image/100/?publickey=TWWihmxcMMQQ4w9I6iqy0dzz","web_url":"https://www.gaiagps.com/api/objects/photo/87341b11ad9c74b3617d1f10879f39a4/image/375/?publickey=TWWihmxcMMQQ4w9I6iqy0dzz","scaled_url":"https://www.gaiagps.com/api/objects/photo/87341b11ad9c74b3617d1f10879f39a4/image/1000/?publickey=TWWihmxcMMQQ4w9I6iqy0dzz","fullsize_url":"https://www.gaiagps.com/api/objects/photo/87341b11ad9c74b3617d1f10879f39a4/image/full/?publickey=TWWihmxcMMQQ4w9I6iqy0dzz"}],"latitude":0.15490155447636708,"longitude":-78.84392389980988,"writable":false},"style":{"stroke":"#5E7A8C"},"geometry":{"type":"MultiLineString","coordinates":[[[-78.844416,0.154331,1477.7,1751565009.0],[-78.844423,0.154346,1477.1,1751565015.0],[-78.844436,0.154338,1477.8,1751565018.0],[-78.84444,0.154349,1478.7,1751565020.0],[-78.844426,0.154338,1479.2,1751565021.0],[-78.844394,0.154245,1479.0,1751565054.0],[-78.844346,0.15417,1482.0,1751565060.0],[-78.844281,0.15412,1480.0,1751565065.0],[-78.844241,0.154045,1482.0,1751565070.0],[-78.844202,0.154065,1482.0,1751565073.0],[-78.844161,0.154051,1485.0,1751565079.0],[-78.844121,0.154066,1484.0,1751565084.0],[-78.844155,0.154085,1484.0,1751565097.0],[-78.844145,0.154046,1490.0,1751565111.0],[-78.844112,0.154075,1490.0,1751565121.0],[-78.844073,0.154052,1490.0,1751565126.0],[-78.844053,0.154023,1486.0,1751565134.0],[-78.844001,0.153992,1488.0,1751565180.0],[-78.843969,0.154008,1490.0,1751565194.0],[-78.843953,0.153969,1474.0,1751565211.0],[-78.843921,0.153985,1490.0,1751565235.0],[-78.843906,0.15394,1488.0,1751565238.0],[-78.843865,0.153907,1481.0,1751565254.0],[-78.843717,0.153839,1487.0,1751565287.0],[-78.843614,0.153831,1484.0,1751565356.0],[-78.843598,0.153805,1483.0,1751565443.0],[-78.843564,0.153825,1486.0,1751565467.0],[-78.843572,0.153771,1482.0,1751565472.0],[-78.843536,0.153748,1467.0,1751565535.0],[-78.843432,0.153784,1482.0,1751565596.0],[-78.84344,0.153765,1484.0,1751565630.0],[-78.843433,0.153763,1479.0,1751565661.0],[-78.843438,0.153835,1476.0,1751565676.0],[-78.84348,0.15388,1463.0,1751565690.0],[-78.843466,0.153911,1469.0,1751565708.0],[-78.843495,0.153898,1464.0,1751565740.0],[-78.843445,0.153928,1476.0,1751565754.0],[-78.843418,0.153988,1470.0,1751565767.0],[-78.843364,0.153984,1468.0,1751565780.0],[-78.843332,0.154009,1458.0,1751565791.0],[-78.843328,0.153998,1467.0,1751565857.0],[-78.843293,0.154016,1465.0,1751565864.0],[-78.843273,0.15404,1464.0,1751565868.0],[-78.84327,0.15408,1465.0,1751565872.0],[-78.843237,0.154101,1466.0,1751565876.0],[-78.843235,0.154059,1467.0,1751565880.0],[-78.843275,0.154045,1459.0,1751565941.0],[-78.843354,0.154098,1459.0,1751565989.0],[-78.843346,0.154132,1455.0,1751566001.0],[-78.843245,0.154172,1449.0,1751566035.0],[-78.843186,0.154227,1454.3,1751566081.0],[-78.843154,0.154227,1454.0,1751566084.0],[-78.843139,0.15428,1451.0,1751566113.0],[-78.843096,0.154277,1450.0,1751566123.0],[-78.843033,0.154345,1445.0,1751566154.0],[-78.843091,0.154463,1435.0,1751566257.0],[-78.843108,0.154481,1438.0,1751566274.0],[-78.843197,0.154532,1435.0,1751566313.0],[-78.843311,0.154548,1434.0,1751566341.0],[-78.843375,0.154636,1433.0,1751566369.0],[-78.843411,0.154656,1428.0,1751566380.0],[-78.843405,0.154714,1428.0,1751566397.0],[-78.843369,0.154723,1424.0,1751566415.0],[-78.843354,0.154752,1426.0,1751566426.0],[-78.84331,0.15479,1427.0,1751566446.0],[-78.843309,0.154867,1422.0,1751566471.0],[-78.843343,0.154919,1420.0,1751566835.0],[-78.843275,0.154982,1418.0,1751566852.0],[-78.843255,0.155042,1416.0,1751566858.0],[-78.843254,0.155082,1411.0,1751566869.0],[-78.84329,0.155131,1412.0,1751566897.0],[-78.8433,0.155164,1407.0,1751566902.0],[-78.843327,0.155184,1410.0,1751566906.0],[-78.843402,0.155208,1408.0,1751566919.0],[-78.843424,0.155239,1407.0,1751566923.0],[-78.843465,0.155376,1403.0,1751566986.0],[-78.843501,0.155394,1402.0,1751567312.0],[-78.843603,0.155373,1405.0,1751567387.0],[-78.843646,0.155392,1400.0,1751567404.0],[-78.843621,0.155449,1404.0,1751567424.0],[-78.843627,0.15548,1408.0,1751567433.0],[-78.843659,0.155502,1410.0,1751567446.0],[-78.843716,0.155474,1410.0,1751567467.0],[-78.843762,0.155425,1412.0,1751567507.0],[-78.843851,0.155406,1408.0,1751567557.0],[-78.843852,0.155367,1417.0,1751567789.0],[-78.843973,0.155321,1420.0,1751567839.0],[-78.843967,0.155414,1423.0,1751567856.0],[-78.844011,0.155485,1414.0,1751567880.0],[-78.844078,0.155533,1420.0,1751567900.0],[-78.844126,0.155479,1416.0,1751567912.0],[-78.84415,0.155465,1418.0,1751567914.0],[-78.844286,0.15546,1420.0,1751567931.0],[-78.844327,0.155477,1420.0,1751567935.0],[-78.844374,0.155466,1417.0,1751567943.0],[-78.844381,0.155504,1416.0,1751567955.0],[-78.844405,0.155533,1416.0,1751567959.0],[-78.844476,0.155577,1416.0,1751567969.0],[-78.844524,0.155655,1416.0,1751567991.0],[-78.844513,0.155703,1416.0,1751568027.0],[-78.84452,0.155738,1416.0,1751568034.0],[-78.844576,0.155797,1415.0,1751568043.0],[-78.844585,0.155834,1414.0,1751568049.0],[-78.84461,0.155854,1408.0,1751568066.0],[-78.844672,0.155872,1416.0,1751568094.0],[-78.844789,0.155875,1414.0,1751568112.0],[-78.844814,0.155895,1416.0,1751568123.0],[-78.844829,0.155924,1417.0,1751568130.0],[-78.844786,0.155998,1418.0,1751568141.0],[-78.844763,0.156096,1416.0,1751568155.0],[-78.84478,0.156162,1416.0,1751568163.0],[-78.844817,0.156197,1416.0,1751568170.0],[-78.844894,0.156141,1422.0,1751568190.0],[-78.844932,0.15614,1422.0,1751568198.0],[-78.84496,0.156121,1425.0,1751568202.0],[-78.845016,0.156042,1424.0,1751568212.0],[-78.84506,0.15594,1424.0,1751568226.0],[-78.84511,0.155907,1429.2,1751568241.0],[-78.845121,0.155921,1429.0,1751568263.0],[-78.8451,0.155883,1428.0,1751568293.0],[-78.845027,0.155933,1426.0,1751568305.0],[-78.844963,0.156083,1424.0,1751568322.0],[-78.844932,0.156121,1423.9,1751568330.0]]]}},{"type":"Feature","properties":{"id":"53e6cdf7157ce245ac3443ef4cedbfd6","updated_date":"2026-09-01T17:57:11Z","time_created":"2025-07-02T21:25:45Z","last_updated_on_server":"2026-09-01T17:59:00.140340","db_insert_date":"2025-07-02T22:37:41Z","deleted":false,"title":"Ruta de la guacharaca","public":true,"color":"{0.341, 0.149, 0.761, 1.000}","hexcolor":"#5726C2","is_active":true,"revision":1788285540,"notes":"","track_type":"","routing_mode":"pedestrian","uploaded_gpx_to_osm":null,"flag":null,"source":"iPhone16,1","cover_photo_id":null,"distance":268.69258167913443,"total_ascent":53.149999999999864,"total_descent":2.699999999999818,"stopped_time":0.0,"total_time":713.0,"average_speed":0.37684794064394733,"moving_time":713.0,"moving_speed":0.37684794064394733,"activities":["hiking"],"imported":false,"folder":"048d152d22cf57558680b41a26bfb0de","privacy_level":"public","sync_to_mobile":null,"preferred_link":"/public/WCDWvxFysN9QATSHKDBmMF0x","user_displayname":"Benjamín Guevara","username":"EarlyShore7952","user_email":"parenaslovecast@gmail.com","user_id":8299461,"created_by":{"id":8299461,"displayName":"Benjamín Guevara","link":"/profile/8299461/","image":"https://www.gaiagps.com/profile/8299461/photo/"},"favorite_count":0,"comment_count":0,"comments":[],"user_photo_count":2,"photos":[{"id":"6a0eb0cb294206406be4fbe2b105cad8","time_created":"2025-07-02T20:22:10Z","title":"Mi foto - 2/7/25, 3:22:10p. m.","latitude":0.14813333333333334,"longitude":-78.84663333333333,"elevation":1517,"updated_date":"2025-07-03T02:43:40Z","last_updated_on_server":"2026-09-01T17:57:11.067419","deleted":false,"revision":1788285431,"notes":"","waypoint_id":"0da3eec7e38cb2e0c20e386fa1e9e1d3","imported":false,"public":false,"thumbnail_url":"https://www.gaiagps.com/api/objects/photo/6a0eb0cb294206406be4fbe2b105cad8/image/100/","web_url":"https://www.gaiagps.com/api/objects/photo/6a0eb0cb294206406be4fbe2b105cad8/image/375/","scaled_url":"https://www.gaiagps.com/api/objects/photo/6a0eb0cb294206406be4fbe2b105cad8/image/1000/","fullsize_url":"https://www.gaiagps.com/api/objects/photo/6a0eb0cb294206406be4fbe2b105cad8/image/full/"},{"id":"c21b2a4f376325c515e55edf1ef07628","time_created":"2025-07-02T21:32:33Z","title":"Punto de cámara (guacharaca)","latitude":0.14837213877889507,"longitude":-78.84681043921552,"elevation":1516,"updated_date":"2025-07-03T02:34:37Z","last_updated_on_server":"2026-09-01T17:57:11.068419","deleted":false,"revision":1788285431,"notes":"","waypoint_id":"7e91c33359fc5303672cc247a5a09075","imported":false,"public":false,"thumbnail_url":"https://www.gaiagps.com/api/objects/photo/c21b2a4f376325c515e55edf1ef07628/image/100/","web_url":"https://www.gaiagps.com/api/objects/photo/c21b2a4f376325c515e55edf1ef07628/image/375/","scaled_url":"https://www.gaiagps.com/api/objects/photo/c21b2a4f376325c515e55edf1ef07628/image/1000/","fullsize_url":"https://www.gaiagps.com/api/objects/photo/c21b2a4f376325c515e55edf1ef07628/image/full/"}],"latitude":0.14844523558918968,"longitude":-78.84678731685413,"writable":false},"style":{"stroke":"#5726C2"},"geometry":{"type":"MultiLineString","coordinates":[[[-78.847539,0.149025,1484.4,1751491545.0],[-78.847493,0.149049,1484.3,1751491551.0],[-78.847519,0.149038,1483.0,1751491556.0],[-78.847516,0.148939,1479.0,1751491577.0],[-78.847449,0.148859,1481.0,1751491600.0],[-78.847403,0.148865,1477.0,1751491611.0],[-78.847374,0.148919,1480.0,1751491628.0],[-78.847343,0.148935,1485.0,1751491634.0],[-78.847295,0.148934,1487.0,1751491649.0],[-78.847209,0.148888,1491.0,1751491683.0],[-78.847129,0.148897,1494.5,1751491703.0],[-78.847117,0.148882,1494.0,1751491709.0],[-78.84705,0.148851,1485.0,1751491738.0],[-78.846969,0.148798,1500.0,1751491774.0],[-78.846918,0.148724,1508.0,1751491806.0],[-78.846919,0.148659,1505.0,1751491823.0],[-78.846868,0.148521,1505.0,1751491861.0],[-78.846872,0.148456,1510.0,1751491874.0],[-78.846849,0.148431,1507.0,1751491879.0],[-78.846836,0.148367,1504.0,1751491889.0],[-78.84679,0.148337,1511.0,1751491905.0],[-78.846809,0.148378,1504.0,1751491952.0],[-78.846805,0.148353,1516.0,1751491970.0],[-78.846834,0.148311,1510.0,1751491979.0],[-78.84681,0.148314,1509.0,1751492003.0],[-78.846765,0.148274,1514.0,1751492021.0],[-78.84671,0.148202,1507.0,1751492036.0],[-78.846677,0.148188,1512.0,1751492046.0],[-78.846622,0.148145,1512.0,1751492063.0],[-78.846491,0.148137,1516.0,1751492088.0],[-78.846419,0.148113,1518.0,1751492097.0],[-78.846361,0.148116,1520.0,1751492113.0],[-78.846281,0.148031,1525.0,1751492153.0],[-78.846253,0.148015,1528.0,1751492162.0],[-78.846191,0.148012,1528.0,1751492171.0],[-78.846025,0.147863,1530.0,1751492213.0],[-78.845865,0.147812,1539.6,1751492258.0]]]}},{"type":"Feature","properties":{"id":"f634a29fd2881c2f2d03bb6a83c2f743","updated_date":"2026-09-01T17:57:10Z","time_created":"2025-07-02T22:32:24Z","last_updated_on_server":"2026-09-01T17:59:00.234188","db_insert_date":"2025-07-02T22:37:41Z","deleted":false,"title":"Casa Xavier","public":true,"color":"{0.000, 0.855, 0.882, 1.000}","hexcolor":"#00DAE1","is_active":true,"revision":1788285540,"notes":"","track_type":"","routing_mode":"pedestrian","uploaded_gpx_to_osm":null,"flag":null,"source":"iPhone16,1","cover_photo_id":null,"distance":177.00017890272125,"total_ascent":0.0,"total_descent":34.799999999999955,"stopped_time":0.0,"total_time":251.0,"average_speed":0.7051799956283715,"moving_time":251.0,"moving_speed":0.7051799956283715,"activities":["hiking"],"imported":false,"folder":"048d152d22cf57558680b41a26bfb0de","privacy_level":"public","sync_to_mobile":null,"preferred_link":"/public/BPQoNxAppVLs6B77uDacfBd3","user_displayname":"Benjamín Guevara","username":"EarlyShore7952","user_email":"parenaslovecast@gmail.com","user_id":8299461,"created_by":{"id":8299461,"displayName":"Benjamín Guevara","link":"/profile/8299461/","image":"https://www.gaiagps.com/profile/8299461/photo/"},"favorite_count":0,"comment_count":0,"comments":[],"user_photo_count":1,"photos":[{"id":"437be1ba4face10f8b4b7d821dc51272","time_created":"2025-07-02T22:37:04Z","title":"Mi foto - 2/7/25, 5:37:04p. m.","latitude":0.15595716135024318,"longitude":-78.8451168442941,"elevation":1428,"updated_date":"2025-07-03T02:40:28Z","last_updated_on_server":"2026-09-01T17:57:10.883833","deleted":false,"revision":1788285430,"notes":"","waypoint_id":"6624d787040d3e321951d766424f420a","imported":false,"public":false,"thumbnail_url":"https://www.gaiagps.com/api/objects/photo/437be1ba4face10f8b4b7d821dc51272/image/100/","web_url":"https://www.gaiagps.com/api/objects/photo/437be1ba4face10f8b4b7d821dc51272/image/375/","scaled_url":"https://www.gaiagps.com/api/objects/photo/437be1ba4face10f8b4b7d821dc51272/image/1000/","fullsize_url":"https://www.gaiagps.com/api/objects/photo/437be1ba4face10f8b4b7d821dc51272/image/full/"}],"latitude":0.1551687410267879,"longitude":-78.84494306506916,"writable":false},"style":{"stroke":"#00DAE1"},"geometry":{"type":"MultiLineString","coordinates":[[[-78.844681,0.154677,1470.6,1751495545.0],[-78.844657,0.154625,1469.7,1751495554.0],[-78.844675,0.154637,1469.4,1751495558.0],[-78.844772,0.154631,1464.0,1751495574.0],[-78.844722,0.154616,1463.0,1751495584.0],[-78.844775,0.154656,1459.0,1751495597.0],[-78.844803,0.154651,1461.0,1751495605.0],[-78.84484,0.154672,1456.0,1751495619.0],[-78.84485,0.154708,1458.0,1751495626.0],[-78.844895,0.154756,1460.0,1751495634.0],[-78.844911,0.154794,1458.0,1751495638.0],[-78.844912,0.154824,1456.0,1751495646.0],[-78.844932,0.154839,1455.0,1751495662.0],[-78.844918,0.154949,1455.0,1751495680.0],[-78.844905,0.154988,1453.0,1751495683.0],[-78.84488,0.155021,1452.0,1751495688.0],[-78.844885,0.155081,1452.0,1751495698.0],[-78.844872,0.155115,1452.0,1751495702.0],[-78.84492,0.15528,1449.0,1751495717.0],[-78.844912,0.155346,1447.0,1751495724.0],[-78.844919,0.15538,1444.0,1751495727.0],[-78.844944,0.155407,1443.0,1751495730.0],[-78.844982,0.155426,1444.0,1751495734.0],[-78.845094,0.155515,1440.0,1751495749.0],[-78.845173,0.15566,1434.0,1751495763.0],[-78.84519,0.155811,1430.0,1751495778.0],[-78.845137,0.155876,1430.0,1751495788.0],[-78.84513,0.155924,1430.9,1751495796.0]]]}},{"type":"Feature","properties":{"id":"ab00c9e542bb8449f8c65c1d75059b36","updated_date":"2026-09-01T17:53:55Z","time_created":"2026-08-24T16:45:40Z","last_updated_on_server":"2026-09-01T17:54:12.411689","db_insert_date":"2026-09-01T17:53:55Z","deleted":false,"title":"Cascada del Oso","public":true,"color":"{0.016, 0.475, 1.000, 1.000}","hexcolor":"#0479FF","is_active":true,"revision":1788285252,"notes":"","track_type":"","routing_mode":"pedestrian","uploaded_gpx_to_osm":null,"flag":null,"source":"Gaia GPS for iPhone","cover_photo_id":null,"distance":471.8952636142727,"total_ascent":24.27500000000009,"total_descent":90.15000000000009,"stopped_time":338.83333349227905,"total_time":1697.0,"average_speed":0.27807617184105643,"moving_time":1358.166666507721,"moving_speed":0.34745018800061245,"activities":["hiking"],"imported":false,"folder":"048d152d22cf57558680b41a26bfb0de","privacy_level":"public","sync_to_mobile":null,"preferred_link":"/public/RKm8wjlMbWPtBMQYdML97DEW","user_displayname":"Benjamín Guevara","username":"EarlyShore7952","user_email":"parenaslovecast@gmail.com","user_id":8299461,"created_by":{"id":8299461,"displayName":"Benjamín Guevara","link":"/profile/8299461/","image":"https://www.gaiagps.com/profile/8299461/photo/"},"favorite_count":0,"comment_count":0,"comments":[],"user_photo_count":5,"photos":[{"id":"062ebb047973db0290c4a937d2b9774e","time_created":"2026-08-24T17:06:59Z","title":"Richuelo cascada grande","latitude":0.15414185400045635,"longitude":-78.84795306998633,"elevation":1273,"updated_date":"2026-09-01T17:53:56Z","last_updated_on_server":"2026-09-01T17:53:56.299800","deleted":false,"revision":1788285236,"notes":"","waypoint_id":"42c54db9f076e57c4b7121a38f6f0d94","imported":false,"public":false,"thumbnail_url":"https://www.gaiagps.com/api/objects/photo/062ebb047973db0290c4a937d2b9774e/image/100/","web_url":"https://www.gaiagps.com/api/objects/photo/062ebb047973db0290c4a937d2b9774e/image/375/","scaled_url":"https://www.gaiagps.com/api/objects/photo/062ebb047973db0290c4a937d2b9774e/image/1000/","fullsize_url":"https://www.gaiagps.com/api/objects/photo/062ebb047973db0290c4a937d2b9774e/image/full/"},{"id":"a3bf0cfac2c8e8cb02d7153b99733c46","time_created":"2026-08-24T17:07:09Z","title":"Richuelo cascada grande","latitude":0.15415513810641424,"longitude":-78.84795019523169,"elevation":1276,"updated_date":"2026-09-01T17:53:56Z","last_updated_on_server":"2026-09-01T17:53:56.286307","deleted":false,"revision":1788285236,"notes":"","waypoint_id":"42c54db9f076e57c4b7121a38f6f0d94","imported":false,"public":false,"thumbnail_url":"https://www.gaiagps.com/api/objects/photo/a3bf0cfac2c8e8cb02d7153b99733c46/image/100/","web_url":"https://www.gaiagps.com/api/objects/photo/a3bf0cfac2c8e8cb02d7153b99733c46/image/375/","scaled_url":"https://www.gaiagps.com/api/objects/photo/a3bf0cfac2c8e8cb02d7153b99733c46/image/1000/","fullsize_url":"https://www.gaiagps.com/api/objects/photo/a3bf0cfac2c8e8cb02d7153b99733c46/image/full/"},{"id":"7af3ac6500bb31ccd36d018a239c58e9","time_created":"2026-08-24T17:07:20Z","title":"Richuelo cascada grande","latitude":0.1541318929787379,"longitude":-78.84793931505058,"elevation":1277,"updated_date":"2026-09-01T17:53:56Z","last_updated_on_server":"2026-09-01T17:53:56.191527","deleted":false,"revision":1788285236,"notes":"","waypoint_id":"42c54db9f076e57c4b7121a38f6f0d94","imported":false,"public":false,"thumbnail_url":"https://www.gaiagps.com/api/objects/photo/7af3ac6500bb31ccd36d018a239c58e9/image/100/","web_url":"https://www.gaiagps.com/api/objects/photo/7af3ac6500bb31ccd36d018a239c58e9/image/375/","scaled_url":"https://www.gaiagps.com/api/objects/photo/7af3ac6500bb31ccd36d018a239c58e9/image/1000/","fullsize_url":"https://www.gaiagps.com/api/objects/photo/7af3ac6500bb31ccd36d018a239c58e9/image/full/"},{"id":"a1bd7db44b65ecd9eb09338028824b03","time_created":"2026-08-24T17:09:16Z","title":"Segunda cascada grande","latitude":0.15399108815361842,"longitude":-78.84789070635863,"elevation":1295,"updated_date":"2026-09-01T17:53:56Z","last_updated_on_server":"2026-09-01T17:53:56.213954","deleted":false,"revision":1788285236,"notes":"","waypoint_id":"c1f0de49adea9ddba3dc146bfd810214","imported":false,"public":false,"thumbnail_url":"https://www.gaiagps.com/api/objects/photo/a1bd7db44b65ecd9eb09338028824b03/image/100/","web_url":"https://www.gaiagps.com/api/objects/photo/a1bd7db44b65ecd9eb09338028824b03/image/375/","scaled_url":"https://www.gaiagps.com/api/objects/photo/a1bd7db44b65ecd9eb09338028824b03/image/1000/","fullsize_url":"https://www.gaiagps.com/api/objects/photo/a1bd7db44b65ecd9eb09338028824b03/image/full/"},{"id":"5da7c10daf55082065bc3c678303b93a","time_created":"2026-08-24T17:11:22Z","title":"Fin de la cascada grande ","latitude":0.15375506007778558,"longitude":-78.84777145495363,"elevation":1307,"updated_date":"2026-09-01T17:53:56Z","last_updated_on_server":"2026-09-01T17:53:56.269031","deleted":false,"revision":1788285236,"notes":"","waypoint_id":"3b112b1fd5f191fcb21ec5c0b3c4e53a","imported":false,"public":false,"thumbnail_url":"https://www.gaiagps.com/api/objects/photo/5da7c10daf55082065bc3c678303b93a/image/100/","web_url":"https://www.gaiagps.com/api/objects/photo/5da7c10daf55082065bc3c678303b93a/image/375/","scaled_url":"https://www.gaiagps.com/api/objects/photo/5da7c10daf55082065bc3c678303b93a/image/1000/","fullsize_url":"https://www.gaiagps.com/api/objects/photo/5da7c10daf55082065bc3c678303b93a/image/full/"}],"latitude":0.15445431521448402,"longitude":-78.84748703397472,"writable":false},"style":{"stroke":"#0479FF"},"geometry":{"type":"MultiLineString","coordinates":[[[-78.846621,0.154927,1371.3,1787589944.0],[-78.846662,0.155004,1364.0,1787589960.0],[-78.846791,0.155093,1359.0,1787589993.0],[-78.846814,0.155101,1358.0,1787589996.0],[-78.846873,0.155098,1344.0,1787590016.0],[-78.846928,0.15505,1351.0,1787590033.0],[-78.846936,0.155016,1353.0,1787590038.0],[-78.846873,0.154837,1351.0,1787590062.0],[-78.846831,0.154804,1352.0,1787590080.0],[-78.846817,0.154765,1356.0,1787590086.0],[-78.846723,0.154699,1355.0,1787590100.0],[-78.846688,0.15461,1356.0,1787590121.0],[-78.846657,0.154591,1352.0,1787590137.0],[-78.846631,0.154616,1354.0,1787590151.0],[-78.846686,0.15456,1354.0,1787590169.0],[-78.846793,0.154567,1356.0,1787590188.0],[-78.846836,0.154535,1354.0,1787590201.0],[-78.846863,0.154556,1355.0,1787590215.0],[-78.846929,0.154552,1353.0,1787590226.0],[-78.847032,0.154493,1345.0,1787590253.0],[-78.847039,0.15444,1341.0,1787590268.0],[-78.847029,0.154406,1341.0,1787590274.0],[-78.847037,0.154376,1335.0,1787590286.0],[-78.847079,0.154411,1340.0,1787590301.0],[-78.847086,0.154378,1341.3,1787590310.0],[-78.847098,0.154401,1340.0,1787590319.0],[-78.84713,0.15439,1336.0,1787590329.0],[-78.847142,0.154435,1338.0,1787590356.0],[-78.847172,0.15444,1335.0,1787590364.0],[-78.847212,0.15453,1331.0,1787590376.0],[-78.847251,0.15455,1330.0,1787590381.0],[-78.847282,0.154623,1329.0,1787590408.0],[-78.847335,0.154608,1329.0,1787590437.0],[-78.847334,0.154639,1320.0,1787590473.0],[-78.847379,0.154661,1328.0,1787590485.0],[-78.847433,0.154627,1320.0,1787590503.0],[-78.847462,0.154637,1323.0,1787590513.0],[-78.847467,0.15469,1320.0,1787590526.0],[-78.847534,0.154785,1316.0,1787590551.0],[-78.847679,0.154833,1313.0,1787590585.0],[-78.84772,0.15483,1314.0,1787590595.0],[-78.847788,0.154849,1300.0,1787590617.0],[-78.847834,0.154815,1304.0,1787590647.0],[-78.847976,0.154799,1300.0,1787590706.0],[-78.847989,0.15474,1296.0,1787590741.0],[-78.848005,0.15471,1296.0,1787590750.0],[-78.847997,0.154634,1296.0,1787590774.0],[-78.848031,0.15466,1290.0,1787590797.0],[-78.848056,0.154618,1292.0,1787590806.0],[-78.848046,0.154542,1287.0,1787590833.0],[-78.848026,0.154517,1285.0,1787590842.0],[-78.847989,0.154516,1287.0,1787590859.0],[-78.847973,0.15448,1287.0,1787590874.0],[-78.848009,0.154428,1290.0,1787590891.0],[-78.84799,0.154376,1286.0,1787590913.0],[-78.848118,0.154415,1274.0,1787590986.0],[-78.848144,0.154391,1278.0,1787590996.0],[-78.848177,0.15432,1281.0,1787591006.0],[-78.84816,0.154294,1278.0,1787591017.0],[-78.848133,0.154203,1280.0,1787591061.0],[-78.848078,0.154211,1276.0,1787591092.0],[-78.848025,0.154167,1281.0,1787591121.0],[-78.847981,0.154164,1268.0,1787591185.0],[-78.847937,0.154136,1270.0,1787591244.0],[-78.847968,0.154136,1269.0,1787591262.0],[-78.847972,0.154052,1275.0,1787591274.0],[-78.847956,0.154012,1276.0,1787591278.0],[-78.847979,0.153957,1286.0,1787591298.0],[-78.847937,0.153937,1286.0,1787591305.0],[-78.847892,0.153967,1284.0,1787591312.0],[-78.847914,0.15394,1291.0,1787591323.0],[-78.847874,0.153987,1278.0,1787591344.0],[-78.847892,0.153982,1290.0,1787591360.0],[-78.84788,0.153966,1288.0,1787591377.0],[-78.84788,0.153845,1292.0,1787591410.0],[-78.847791,0.153768,1293.0,1787591458.0],[-78.847816,0.153736,1293.0,1787591465.0],[-78.847773,0.153753,1303.0,1787591476.0],[-78.847802,0.153759,1302.0,1787591487.0],[-78.847786,0.153749,1290.0,1787591501.0],[-78.847799,0.153711,1290.0,1787591517.0],[-78.847756,0.153738,1298.0,1787591534.0],[-78.847718,0.153749,1292.0,1787591559.0],[-78.847833,0.153727,1296.0,1787591573.0],[-78.847834,0.153769,1297.0,1787591585.0],[-78.847774,0.153773,1293.0,1787591626.0],[-78.847795,0.153751,1298.0,1787591638.0],[-78.847793,0.153742,1299.8,1787591641.0]]]}},{"type":"Feature","properties":{"id":"056e629a6805170beb87fd0d4a050f97","updated_date":"2026-09-01T17:57:10Z","time_created":"2025-07-02T22:08:03Z","last_updated_on_server":"2026-09-01T17:59:00.107246","db_insert_date":"2025-07-02T22:37:41Z","deleted":false,"title":"Ruta de la fruta azul","public":true,"color":"{0.000, 0.698, 1.000, 1.000}","hexcolor":"#00B2FF","is_active":true,"revision":1788285540,"notes":"Básicamente porque encontramos muchas de estas frutas por el camino. Estamos en labor de identificarlas. Las probé y son ligeramente dulzonas con una textura que recuerda a la pera","track_type":"","routing_mode":"pedestrian","uploaded_gpx_to_osm":null,"flag":null,"source":"iPhone16,1","cover_photo_id":null,"distance":519.7524624442162,"total_ascent":0.0,"total_descent":65.59999999999991,"stopped_time":156.0,"total_time":1336.0,"average_speed":0.389036274284593,"moving_time":1180.0,"moving_speed":0.44046818851204766,"activities":["hiking"],"imported":false,"folder":"048d152d22cf57558680b41a26bfb0de","privacy_level":"public","sync_to_mobile":null,"preferred_link":"/public/DSV9zxBfugCSl8J6oeaKWoo7","user_displayname":"Benjamín Guevara","username":"EarlyShore7952","user_email":"parenaslovecast@gmail.com","user_id":8299461,"created_by":{"id":8299461,"displayName":"Benjamín Guevara","link":"/profile/8299461/","image":"https://www.gaiagps.com/profile/8299461/photo/"},"favorite_count":0,"comment_count":0,"comments":[],"user_photo_count":7,"photos":[{"id":"2dcbc83b9df5e821bd4a758eb759dc43","time_created":"2025-07-02T18:39:02Z","title":"Mi foto - 2/7/25, 1:39:02p. m.","latitude":0.15358333333333332,"longitude":-78.845375,"elevation":1493,"updated_date":"2025-07-03T02:47:26Z","last_updated_on_server":"2026-09-01T17:57:10.912888","deleted":false,"revision":1788285430,"notes":"","waypoint_id":"8544cfbeb377ae2ed949958015b27413","imported":false,"public":false,"thumbnail_url":"https://www.gaiagps.com/api/objects/photo/2dcbc83b9df5e821bd4a758eb759dc43/image/100/?publickey=kU6UKEa593e4qOoGAkGkT05a","web_url":"https://www.gaiagps.com/api/objects/photo/2dcbc83b9df5e821bd4a758eb759dc43/image/375/?publickey=kU6UKEa593e4qOoGAkGkT05a","scaled_url":"https://www.gaiagps.com/api/objects/photo/2dcbc83b9df5e821bd4a758eb759dc43/image/1000/?publickey=kU6UKEa593e4qOoGAkGkT05a","fullsize_url":"https://www.gaiagps.com/api/objects/photo/2dcbc83b9df5e821bd4a758eb759dc43/image/full/?publickey=kU6UKEa593e4qOoGAkGkT05a"},{"id":"f7d012d471a0cff20dbea7955dbef818","time_created":"2025-07-02T20:37:51Z","title":"Mi foto - 2/7/25, 3:37:51p. m.","latitude":0.149025,"longitude":-78.84735,"elevation":1487,"updated_date":"2025-07-03T02:47:26Z","last_updated_on_server":"2026-09-01T17:57:10.917888","deleted":false,"revision":1788285430,"notes":"","waypoint_id":"9da8a7fe2fd6710ac77b92834f9b6ca4","imported":false,"public":false,"thumbnail_url":"https://www.gaiagps.com/api/objects/photo/f7d012d471a0cff20dbea7955dbef818/image/100/","web_url":"https://www.gaiagps.com/api/objects/photo/f7d012d471a0cff20dbea7955dbef818/image/375/","scaled_url":"https://www.gaiagps.com/api/objects/photo/f7d012d471a0cff20dbea7955dbef818/image/1000/","fullsize_url":"https://www.gaiagps.com/api/objects/photo/f7d012d471a0cff20dbea7955dbef818/image/full/"},{"id":"e6e000699d40f079886df737082ccda3","time_created":"2025-07-02T22:18:11Z","title":"Cámara 1 (camino de la fruta azul)","latitude":0.15269046949836548,"longitude":-78.84292983299457,"elevation":1539,"updated_date":"2025-07-03T02:40:28Z","last_updated_on_server":"2026-09-01T17:57:10.916888","deleted":false,"revision":1788285430,"notes":"","waypoint_id":"765fb9058aedebe468de0c8181da4b0f","imported":false,"public":false,"thumbnail_url":"https://www.gaiagps.com/api/objects/photo/e6e000699d40f079886df737082ccda3/image/100/","web_url":"https://www.gaiagps.com/api/objects/photo/e6e000699d40f079886df737082ccda3/image/375/","scaled_url":"https://www.gaiagps.com/api/objects/photo/e6e000699d40f079886df737082ccda3/image/1000/","fullsize_url":"https://www.gaiagps.com/api/objects/photo/e6e000699d40f079886df737082ccda3/image/full/"},{"id":"c1fc36514693b21e743cf7aefd88b368","time_created":"2025-07-02T22:18:50Z","title":"Cámara 2 (Camino de la fruta azul)","latitude":0.1526786956337364,"longitude":-78.84291995244182,"elevation":1540,"updated_date":"2025-07-03T02:34:37Z","last_updated_on_server":"2026-09-01T17:57:10.915888","deleted":false,"revision":1788285430,"notes":"","waypoint_id":"b27119b7e7f6eaf6412d456ee452190c","imported":false,"public":false,"thumbnail_url":"https://www.gaiagps.com/api/objects/photo/c1fc36514693b21e743cf7aefd88b368/image/100/","web_url":"https://www.gaiagps.com/api/objects/photo/c1fc36514693b21e743cf7aefd88b368/image/375/","scaled_url":"https://www.gaiagps.com/api/objects/photo/c1fc36514693b21e743cf7aefd88b368/image/1000/","fullsize_url":"https://www.gaiagps.com/api/objects/photo/c1fc36514693b21e743cf7aefd88b368/image/full/"},{"id":"9fed9579232fb6f90eaefa76cd193c1a","time_created":"2025-07-02T22:22:45Z","title":"Cámara 3 (camino de la fruta azul)","latitude":0.15306490607802867,"longitude":-78.84355680661795,"elevation":1519,"updated_date":"2025-07-03T02:34:37Z","last_updated_on_server":"2026-09-01T17:57:10.914888","deleted":false,"revision":1788285430,"notes":"","waypoint_id":"185e931b2352526ecfee3d6f1bcbb408","imported":false,"public":false,"thumbnail_url":"https://www.gaiagps.com/api/objects/photo/9fed9579232fb6f90eaefa76cd193c1a/image/100/","web_url":"https://www.gaiagps.com/api/objects/photo/9fed9579232fb6f90eaefa76cd193c1a/image/375/","scaled_url":"https://www.gaiagps.com/api/objects/photo/9fed9579232fb6f90eaefa76cd193c1a/image/1000/","fullsize_url":"https://www.gaiagps.com/api/objects/photo/9fed9579232fb6f90eaefa76cd193c1a/image/full/"},{"id":"057b2045ccf3014120f3fec71a09f924","time_created":"2025-07-02T22:25:37Z","title":"Posible camino del puma ","latitude":0.15379382156852542,"longitude":-78.84413756836206,"elevation":1506,"updated_date":"2025-07-03T02:34:37Z","last_updated_on_server":"2026-09-01T17:57:10.911888","deleted":false,"revision":1788285430,"notes":"","waypoint_id":"3004443a85d11047639f917ccf65adbd","imported":false,"public":false,"thumbnail_url":"https://www.gaiagps.com/api/objects/photo/057b2045ccf3014120f3fec71a09f924/image/100/","web_url":"https://www.gaiagps.com/api/objects/photo/057b2045ccf3014120f3fec71a09f924/image/375/","scaled_url":"https://www.gaiagps.com/api/objects/photo/057b2045ccf3014120f3fec71a09f924/image/1000/","fullsize_url":"https://www.gaiagps.com/api/objects/photo/057b2045ccf3014120f3fec71a09f924/image/full/"},{"id":"7efbd056c3b07842c26e174cf9e80502","time_created":"2025-07-02T22:31:00Z","title":"Mi foto - 2/7/25, 5:31:00p. m.","latitude":0.15467920236873678,"longitude":-78.84468621431844,"elevation":1472,"updated_date":"2025-07-03T02:34:37Z","last_updated_on_server":"2026-09-01T17:57:10.913888","deleted":false,"revision":1788285430,"notes":"","waypoint_id":"daff8df7da46cb73c69d1c91a47fa05f","imported":false,"public":false,"thumbnail_url":"https://www.gaiagps.com/api/objects/photo/7efbd056c3b07842c26e174cf9e80502/image/100/?publickey=OO4KOnDecfMjolbf9LMzzTgV","web_url":"https://www.gaiagps.com/api/objects/photo/7efbd056c3b07842c26e174cf9e80502/image/375/?publickey=OO4KOnDecfMjolbf9LMzzTgV","scaled_url":"https://www.gaiagps.com/api/objects/photo/7efbd056c3b07842c26e174cf9e80502/image/1000/?publickey=OO4KOnDecfMjolbf9LMzzTgV","fullsize_url":"https://www.gaiagps.com/api/objects/photo/7efbd056c3b07842c26e174cf9e80502/image/full/?publickey=OO4KOnDecfMjolbf9LMzzTgV"}],"latitude":0.15314572098374263,"longitude":-78.84355369774737,"writable":false},"style":{"stroke":"#00B2FF"},"geometry":{"type":"MultiLineString","coordinates":[[[-78.842278,0.151465,1538.7,1751494083.0],[-78.842292,0.151465,1538.5,1751494088.0],[-78.842295,0.151494,1533.0,1751494118.0],[-78.842322,0.151465,1532.0,1751494205.0],[-78.842364,0.15144,1534.0,1751494239.0],[-78.842411,0.151442,1536.0,1751494253.0],[-78.842444,0.151493,1538.0,1751494289.0],[-78.842514,0.151568,1536.0,1751494339.0],[-78.842522,0.1516,1534.0,1751494345.0],[-78.842506,0.1517,1532.0,1751494381.0],[-78.842565,0.151823,1518.0,1751494406.0],[-78.842577,0.151928,1532.0,1751494442.0],[-78.842614,0.152031,1536.0,1751494460.0],[-78.842626,0.152108,1535.0,1751494469.0],[-78.842777,0.152223,1530.0,1751494522.0],[-78.842772,0.15228,1533.0,1751494535.0],[-78.842805,0.152358,1536.0,1751494555.0],[-78.842797,0.152405,1535.0,1751494583.0],[-78.842764,0.152424,1534.0,1751494590.0],[-78.84281,0.152593,1533.0,1751494612.0],[-78.842864,0.152674,1534.0,1751494628.0],[-78.842916,0.152687,1538.0,1751494667.0],[-78.843003,0.152768,1536.0,1751494755.0],[-78.843065,0.152798,1535.0,1751494780.0],[-78.843103,0.152895,1533.0,1751494807.0],[-78.843146,0.152912,1530.0,1751494826.0],[-78.84319,0.152955,1524.0,1751494841.0],[-78.843263,0.152985,1525.0,1751494856.0],[-78.843292,0.153007,1526.0,1751494864.0],[-78.843501,0.153076,1522.2,1751494914.0],[-78.843527,0.153098,1518.0,1751494919.0],[-78.843567,0.153081,1516.0,1751494969.0],[-78.843583,0.153109,1516.0,1751494979.0],[-78.843703,0.15318,1515.0,1751494996.0],[-78.843753,0.153327,1510.0,1751495013.0],[-78.843799,0.153369,1512.0,1751495023.0],[-78.843811,0.153449,1505.0,1751495037.0],[-78.84385,0.153477,1506.0,1751495042.0],[-78.84397,0.153512,1506.0,1751495062.0],[-78.844,0.153544,1506.0,1751495071.0],[-78.844006,0.153579,1506.0,1751495078.0],[-78.844027,0.153597,1505.0,1751495082.0],[-78.844122,0.153752,1500.0,1751495109.0],[-78.844133,0.153793,1504.0,1751495126.0],[-78.844127,0.153775,1504.0,1751495147.0],[-78.844222,0.153857,1496.0,1751495176.0],[-78.844259,0.153878,1494.0,1751495180.0],[-78.844284,0.153936,1495.0,1751495188.0],[-78.84433,0.153969,1490.0,1751495197.0],[-78.844296,0.15397,1488.0,1751495215.0],[-78.844374,0.154045,1490.0,1751495269.0],[-78.844449,0.154041,1481.0,1751495283.0],[-78.844409,0.154062,1483.0,1751495290.0],[-78.844388,0.154108,1484.0,1751495295.0],[-78.844429,0.154117,1486.0,1751495300.0],[-78.844398,0.15409,1486.3,1751495301.0],[-78.844353,0.15412,1481.0,1751495312.0],[-78.844449,0.154127,1480.0,1751495322.0],[-78.844472,0.154095,1482.0,1751495326.0],[-78.844472,0.15424,1477.0,1751495343.0],[-78.844428,0.154262,1478.0,1751495346.0],[-78.844447,0.154333,1476.0,1751495351.0],[-78.84449,0.154379,1478.0,1751495356.0],[-78.84453,0.154379,1476.0,1751495365.0],[-78.844537,0.154413,1474.0,1751495372.0],[-78.844579,0.154438,1473.0,1751495377.0],[-78.844615,0.154436,1470.0,1751495382.0],[-78.844606,0.154489,1470.0,1751495393.0],[-78.844648,0.154466,1468.0,1751495403.0],[-78.844686,0.154534,1470.5,1751495407.0],[-78.844679,0.154671,1472.7,1751495419.0]]]}},{"type":"Feature","properties":{"id":"e013a31f1fd0789b67fe4f96ba3ae048","updated_date":"2026-09-01T17:57:10Z","time_created":"2025-07-03T14:14:47Z","last_updated_on_server":"2026-09-01T17:59:00.220415","db_insert_date":"2025-07-07T01:25:37Z","deleted":false,"title":"Camino de la cascada ","public":true,"color":"{0.000, 0.643, 0.471, 1.000}","hexcolor":"#00A478","is_active":true,"revision":1788285540,"notes":"","track_type":"","routing_mode":"pedestrian","uploaded_gpx_to_osm":null,"flag":null,"source":"iPhone16,1","cover_photo_id":null,"distance":636.0563389273802,"total_ascent":28.583333333333485,"total_descent":64.73333333333335,"stopped_time":395.5,"total_time":1709.0,"average_speed":0.3721804206713752,"moving_time":1313.5,"moving_speed":0.4842454045887935,"activities":["hiking"],"imported":false,"folder":"048d152d22cf57558680b41a26bfb0de","privacy_level":"public","sync_to_mobile":null,"preferred_link":"/public/n8OpgBWZAJmiLWkMJRjy9IqT","user_displayname":"Benjamín Guevara","username":"EarlyShore7952","user_email":"parenaslovecast@gmail.com","user_id":8299461,"created_by":{"id":8299461,"displayName":"Benjamín Guevara","link":"/profile/8299461/","image":"https://www.gaiagps.com/profile/8299461/photo/"},"favorite_count":0,"comment_count":0,"comments":[],"user_photo_count":1,"photos":[{"id":"e87fddbd2e834a46640b0892167f876f","time_created":"2025-07-03T14:43:05Z","title":"Cascada","latitude":0.15244956407218732,"longitude":-78.84672901657055,"elevation":1366,"updated_date":"2025-07-07T01:25:49Z","last_updated_on_server":"2026-09-01T17:57:10.855144","deleted":false,"revision":1788285430,"notes":"","waypoint_id":"a5b8118ec3a968881631446b4753351f","imported":false,"public":false,"thumbnail_url":"https://www.gaiagps.com/api/objects/photo/e87fddbd2e834a46640b0892167f876f/image/100/","web_url":"https://www.gaiagps.com/api/objects/photo/e87fddbd2e834a46640b0892167f876f/image/375/","scaled_url":"https://www.gaiagps.com/api/objects/photo/e87fddbd2e834a46640b0892167f876f/image/1000/","fullsize_url":"https://www.gaiagps.com/api/objects/photo/e87fddbd2e834a46640b0892167f876f/image/full/"}],"latitude":0.15394992201390387,"longitude":-78.84617441821419,"writable":false},"style":{"stroke":"#00A478"},"geometry":{"type":"MultiLineString","coordinates":[[[-78.845612,0.156288,1414.1,1751552087.0],[-78.845658,0.156292,1413.9,1751552093.0],[-78.845727,0.156217,1412.0,1751552112.0],[-78.845759,0.156209,1406.0,1751552117.0],[-78.845786,0.156182,1404.0,1751552123.0],[-78.845784,0.156147,1402.0,1751552132.0],[-78.84573,0.156113,1404.0,1751552141.0],[-78.845719,0.156049,1403.0,1751552162.0],[-78.845764,0.156012,1405.0,1751552179.0],[-78.845763,0.155929,1406.0,1751552196.0],[-78.845791,0.15592,1404.0,1751552201.0],[-78.845895,0.155941,1395.0,1751552229.0],[-78.84592,0.155911,1396.0,1751552236.0],[-78.845945,0.155836,1396.2,1751552247.0],[-78.845936,0.15574,1394.0,1751552263.0],[-78.845945,0.15571,1390.0,1751552267.0],[-78.846004,0.155616,1392.0,1751552286.0],[-78.846013,0.155558,1398.0,1751552296.0],[-78.846046,0.155534,1391.0,1751552305.0],[-78.846007,0.155433,1392.0,1751552327.0],[-78.846011,0.155369,1392.0,1751552339.0],[-78.846002,0.155311,1390.0,1751552347.0],[-78.845983,0.155268,1390.0,1751552354.0],[-78.845996,0.155224,1389.0,1751552368.0],[-78.846027,0.155189,1395.0,1751552381.0],[-78.846021,0.155146,1392.0,1751552395.0],[-78.846039,0.155042,1398.0,1751552408.0],[-78.846037,0.155002,1396.0,1751552413.0],[-78.846077,0.154959,1396.2,1751552419.0],[-78.846123,0.154934,1387.0,1751552429.0],[-78.84619,0.154945,1386.0,1751552444.0],[-78.846233,0.15492,1385.0,1751552467.0],[-78.846214,0.15492,1384.0,1751552542.0],[-78.846146,0.154862,1386.0,1751552587.0],[-78.846125,0.154786,1388.0,1751552597.0],[-78.846133,0.154753,1386.0,1751552602.0],[-78.846084,0.154707,1386.0,1751552609.0],[-78.846082,0.154531,1396.0,1751552685.0],[-78.845966,0.154269,1395.0,1751552731.0],[-78.845869,0.154213,1395.0,1751552748.0],[-78.845932,0.154055,1393.0,1751552779.0],[-78.845959,0.154038,1390.0,1751552790.0],[-78.845962,0.154,1392.0,1751552798.0],[-78.845951,0.153968,1390.0,1751552803.0],[-78.845913,0.153934,1390.0,1751552810.0],[-78.845903,0.153875,1390.0,1751552817.0],[-78.845837,0.153845,1386.0,1751552837.0],[-78.845869,0.153587,1395.0,1751552869.0],[-78.845848,0.153478,1394.0,1751552899.0],[-78.845855,0.153445,1395.0,1751552903.0],[-78.845904,0.153407,1400.0,1751552926.0],[-78.845927,0.153364,1386.0,1751552947.0],[-78.845902,0.153244,1396.0,1751552976.0],[-78.845963,0.153059,1396.0,1751553021.0],[-78.845962,0.153014,1397.0,1751553032.0],[-78.845943,0.152985,1396.0,1751553038.0],[-78.846012,0.152941,1395.0,1751553048.0],[-78.846034,0.1529,1386.0,1751553061.0],[-78.846085,0.152869,1390.0,1751553083.0],[-78.846115,0.152831,1391.0,1751553229.0],[-78.846164,0.1528,1386.0,1751553252.0],[-78.846191,0.152818,1389.0,1751553257.0],[-78.846418,0.152791,1380.0,1751553298.0],[-78.84645,0.152766,1380.0,1751553309.0],[-78.846457,0.152725,1379.0,1751553323.0],[-78.846478,0.152709,1378.0,1751553332.0],[-78.846522,0.152646,1374.0,1751553347.0],[-78.84655,0.152636,1374.0,1751553366.0],[-78.846477,0.152607,1374.0,1751553379.0],[-78.846565,0.152663,1368.0,1751553421.0],[-78.846574,0.152715,1372.0,1751553439.0],[-78.846675,0.152698,1372.0,1751553457.0],[-78.846682,0.152622,1370.0,1751553466.0],[-78.846674,0.152587,1368.0,1751553471.0],[-78.846686,0.15255,1363.0,1751553484.0],[-78.846693,0.152574,1368.0,1751553492.0],[-78.846768,0.152557,1368.0,1751553508.0],[-78.846802,0.152493,1368.0,1751553531.0],[-78.846828,0.152465,1376.0,1751553554.0],[-78.84677,0.152481,1370.0,1751553584.0],[-78.846797,0.152463,1369.0,1751553601.0],[-78.846774,0.152437,1367.0,1751553625.0],[-78.8468,0.152445,1369.0,1751553663.0],[-78.846817,0.152412,1373.8,1751553673.0],[-78.846783,0.152343,1375.3,1751553676.0],[-78.846759,0.152315,1375.0,1751553677.0],[-78.846783,0.152391,1375.3,1751553679.0],[-78.846699,0.152271,1380.0,1751553695.0],[-78.846834,0.152456,1380.0,1751553705.0],[-78.846753,0.152437,1373.0,1751553735.0],[-78.84677,0.152467,1372.0,1751553753.0],[-78.846735,0.152446,1365.0,1751553786.0],[-78.846739,0.152435,1364.8,1751553796.0]]]}},{"type":"Feature","properties":{"id":"af855c84-d3c6-4dc6-a810-f81d26f1b3e1","updated_date":"2026-09-01T18:00:32Z","time_created":"2025-07-02T18:42:44Z","last_updated_on_server":"2026-09-01T18:00:32.956903","db_insert_date":"2025-07-07T18:03:18Z","deleted":true,"title":"ruta de la fruta azul (loma)","public":true,"color":"{0.176, 0.247, 0.780, 1.000}","hexcolor":"#2D3FC7","is_active":true,"revision":1788285632,"notes":"","track_type":"track","routing_mode":"","uploaded_gpx_to_osm":null,"flag":null,"source":"Android Xiaomi Redmi 8","cover_photo_id":null,"distance":98.90690834816998,"total_ascent":36.5565185546875,"total_descent":13.9873046875,"stopped_time":205.5,"total_time":638.0,"average_speed":0.15502650211311908,"moving_time":432.5,"moving_speed":0.22868649329056642,"activities":["hiking"],"imported":false,"folder":"048d152d22cf57558680b41a26bfb0de","privacy_level":"public","sync_to_mobile":null,"preferred_link":"/public/4Ob6Jc25Blgv337nykzntViG","user_displayname":"Benjamín Guevara","username":"EarlyShore7952","user_email":"parenaslovecast@gmail.com","user_id":8299461,"created_by":{"id":8299461,"displayName":"Benjamín Guevara","link":"/profile/8299461/","image":"https://www.gaiagps.com/profile/8299461/photo/"},"favorite_count":0,"comment_count":0,"comments":[],"user_photo_count":0,"latitude":0.15289010063959432,"longitude":-78.84315579126836,"writable":false},"style":{"stroke":"#2D3FC7"},"geometry":{"type":"MultiLineString","coordinates":[[[-78.843536,0.153105,1506.1982666015624,1751481766.0],[-78.843536,0.153105,1506.2219482421874,1751481775.0],[-78.843536,0.153105,1506.217431640625,1751481776.0],[-78.842858,0.15273,1542.75478515625,1751482186.0],[-78.842916,0.152741,1532.860986328125,1751482197.0],[-78.842936,0.152724,1531.50771484375,1751482200.0],[-78.842912,0.152688,1528.76748046875,1751482404.0]]]}},{"type":"Feature","properties":{"id":"3d6f1db11414a0ced0681713b9fadc02","updated_date":"2026-09-01T18:00:38Z","time_created":"2025-07-03T14:45:28Z","last_updated_on_server":"2026-09-01T18:00:38.448486","db_insert_date":"2025-07-07T01:25:37Z","deleted":true,"title":"Cascada regreso","public":true,"color":"{0.290, 0.741, 0.196, 1.000}","hexcolor":"#4ABD32","is_active":true,"revision":1788285638,"notes":"","track_type":"","routing_mode":"pedestrian","uploaded_gpx_to_osm":null,"flag":null,"source":"iPhone16,1","cover_photo_id":null,"distance":347.7295729361699,"total_ascent":39.75,"total_descent":12.5,"stopped_time":1009.0,"total_time":1839.0,"average_speed":0.18908622780650894,"moving_time":830.0,"moving_speed":0.41895129269418063,"activities":["hiking"],"imported":false,"folder":"048d152d22cf57558680b41a26bfb0de","privacy_level":"public","sync_to_mobile":null,"preferred_link":"/public/n4nr4p8jpNw7dp5P2sw7Ufe1","user_displayname":"Benjamín Guevara","username":"EarlyShore7952","user_email":"parenaslovecast@gmail.com","user_id":8299461,"created_by":{"id":8299461,"displayName":"Benjamín Guevara","link":"/profile/8299461/","image":"https://www.gaiagps.com/profile/8299461/photo/"},"favorite_count":0,"comment_count":0,"comments":[],"user_photo_count":0,"latitude":0.1535505921624112,"longitude":-78.84607869691908,"writable":false},"style":{"stroke":"#4ABD32"},"geometry":{"type":"MultiLineString","coordinates":[[[-78.84659,0.152621,1361.8,1751553929.0],[-78.846575,0.152678,1378.8,1751553934.0],[-78.846511,0.152625,1372.0,1751553945.0],[-78.846474,0.152663,1376.0,1751553954.0],[-78.846434,0.152685,1374.0,1751553964.0],[-78.846369,0.152798,1383.0,1751554039.0],[-78.846327,0.152794,1380.0,1751554045.0],[-78.846395,0.152812,1385.0,1751554083.0],[-78.846356,0.152798,1385.9,1751554095.0],[-78.846385,0.152788,1385.0,1751554100.0],[-78.846379,0.152824,1384.8,1751554140.0],[-78.846388,0.152805,1380.0,1751554149.0],[-78.846394,0.152845,1383.0,1751554193.0],[-78.846393,0.152788,1371.0,1751554319.0],[-78.846425,0.152746,1378.0,1751554740.0],[-78.846397,0.152771,1379.0,1751554797.0],[-78.846385,0.152796,1378.5,1751554963.0]],[[-78.846356,0.152753,1384.5,1751555731.0],[-78.846336,0.152758,1386.2,1751555735.0],[-78.846328,0.152749,1387.5,1751555739.0],[-78.846286,0.152762,1372.0,1751555769.0],[-78.84616,0.152735,1392.0,1751555809.0],[-78.846101,0.152783,1390.0,1751555820.0],[-78.846083,0.152821,1392.0,1751555833.0],[-78.845918,0.152967,1397.0,1751555911.0],[-78.845946,0.153077,1400.0,1751555940.0],[-78.845908,0.153154,1398.0,1751555960.0],[-78.845911,0.15324,1395.0,1751555988.0],[-78.845886,0.153255,1396.0,1751555993.0],[-78.845922,0.153284,1395.0,1751556017.0],[-78.845835,0.153488,1391.0,1751556078.0],[-78.845827,0.153551,1398.0,1751556108.0],[-78.845841,0.153591,1395.0,1751556114.0],[-78.845801,0.153673,1395.0,1751556126.0],[-78.845837,0.153722,1391.0,1751556144.0],[-78.845848,0.153761,1395.0,1751556156.0],[-78.845832,0.153798,1394.0,1751556158.0],[-78.845795,0.153832,1393.0,1751556172.0],[-78.845859,0.153842,1393.0,1751556190.0],[-78.845896,0.153913,1395.0,1751556203.0],[-78.845927,0.153898,1390.0,1751556211.0],[-78.845947,0.15392,1392.0,1751556216.0],[-78.845977,0.153927,1392.0,1751556228.0],[-78.845901,0.154075,1392.0,1751556270.0],[-78.845858,0.154129,1392.0,1751556286.0],[-78.845848,0.154162,1394.0,1751556290.0],[-78.845895,0.154211,1396.0,1751556298.0],[-78.845945,0.154311,1398.0,1751556317.0],[-78.846006,0.15435,1395.0,1751556325.0],[-78.846035,0.154405,1393.0,1751556331.0],[-78.84607,0.154522,1386.0,1751556346.0],[-78.846054,0.154627,1388.0,1751556374.0],[-78.846068,0.154658,1387.0,1751556389.0],[-78.846095,0.154632,1393.0,1751556427.0],[-78.846118,0.154723,1390.0,1751556443.0],[-78.846111,0.154758,1390.0,1751556450.0],[-78.846166,0.154861,1389.0,1751556465.0],[-78.846189,0.154885,1390.0,1751556469.0],[-78.846187,0.154919,1390.0,1751556477.0],[-78.846246,0.154919,1388.6,1751556536.0]]]}},{"type":"Feature","properties":{"id":"780d7ad467066f38644aa3f2a665b7cf","updated_date":"2026-09-01T17:57:10Z","time_created":"2025-07-03T15:30:55Z","last_updated_on_server":"2026-09-01T17:59:00.153136","db_insert_date":"2025-07-07T01:25:37Z","deleted":false,"title":"Ruta del insecto palo","public":true,"color":"{1.000, 0.616, 0.000, 1.000}","hexcolor":"#FF9D00","is_active":true,"revision":1788285540,"notes":"","track_type":"","routing_mode":"pedestrian","uploaded_gpx_to_osm":null,"flag":null,"source":"iPhone16,1","cover_photo_id":null,"distance":36.73863772958474,"total_ascent":0.0,"total_descent":9.0,"stopped_time":1702.0,"total_time":1775.0,"average_speed":0.020697824073005487,"moving_time":73.0,"moving_speed":0.5032690099943115,"activities":[],"imported":false,"folder":"048d152d22cf57558680b41a26bfb0de","privacy_level":"public","sync_to_mobile":null,"preferred_link":"/public/8oG4Asa3W3QhO2gCuzd3mta8","user_displayname":"Benjamín Guevara","username":"EarlyShore7952","user_email":"parenaslovecast@gmail.com","user_id":8299461,"created_by":{"id":8299461,"displayName":"Benjamín Guevara","link":"/profile/8299461/","image":"https://www.gaiagps.com/profile/8299461/photo/"},"favorite_count":0,"comment_count":0,"comments":[],"user_photo_count":1,"photos":[{"id":"65af82821e6f0f7dd76d39ff13dfcb61","time_created":"2025-07-03T16:13:00Z","title":"Ruta del insecto palo (cámara)","latitude":0.1549749615967091,"longitude":-78.84648993555457,"elevation":1386,"updated_date":"2025-07-07T01:25:48Z","last_updated_on_server":"2026-09-01T17:57:10.794428","deleted":false,"revision":1788285430,"notes":"","waypoint_id":"fde9704efd95f23f488c30c4ba38b47f","imported":false,"public":false,"thumbnail_url":"https://www.gaiagps.com/api/objects/photo/65af82821e6f0f7dd76d39ff13dfcb61/image/100/","web_url":"https://www.gaiagps.com/api/objects/photo/65af82821e6f0f7dd76d39ff13dfcb61/image/375/","scaled_url":"https://www.gaiagps.com/api/objects/photo/65af82821e6f0f7dd76d39ff13dfcb61/image/1000/","fullsize_url":"https://www.gaiagps.com/api/objects/photo/65af82821e6f0f7dd76d39ff13dfcb61/image/full/"}],"latitude":0.15495605206937257,"longitude":-78.84638525662069,"writable":false},"style":{"stroke":"#FF9D00"},"geometry":{"type":"MultiLineString","coordinates":[[[-78.846206,0.154923,1388.0,1751556656.0],[-78.846218,0.154931,1388.0,1751556659.0],[-78.846218,0.154948,1385.0,1751556664.0],[-78.846254,0.154963,1388.0,1751556667.0],[-78.846401,0.154961,1384.0,1751556680.0],[-78.846494,0.154944,1379.0,1751556729.0],[-78.846508,0.154988,1379.0,1751557605.0],[-78.846492,0.15493,1377.0,1751558353.0],[-78.846497,0.154917,1381.0,1751558431.0]]]}},{"type":"Feature","properties":{"id":"ada5553f3476d1d4717a8e2e4613f53a","updated_date":"2026-09-01T17:57:10Z","time_created":"2025-07-02T21:46:28Z","last_updated_on_server":"2026-09-01T17:59:00.181806","db_insert_date":"2025-07-02T22:37:41Z","deleted":false,"title":"Camino público ","public":true,"color":"{0.016, 0.475, 1.000, 1.000}","hexcolor":"#0479FF","is_active":true,"revision":1788285540,"notes":"","track_type":"","routing_mode":"pedestrian","uploaded_gpx_to_osm":null,"flag":null,"source":"iPhone16,1","cover_photo_id":null,"distance":670.1977019459223,"total_ascent":6.650000000000091,"total_descent":38.15000000000009,"stopped_time":0.0,"total_time":1225.0,"average_speed":0.5471001648538141,"moving_time":1225.0,"moving_speed":0.5471001648538141,"activities":["hiking"],"imported":false,"folder":"048d152d22cf57558680b41a26bfb0de","privacy_level":"public","sync_to_mobile":null,"preferred_link":"/public/9lneAPodU7WGIImB0sYu7Ybg","user_displayname":"Benjamín Guevara","username":"EarlyShore7952","user_email":"parenaslovecast@gmail.com","user_id":8299461,"created_by":{"id":8299461,"displayName":"Benjamín Guevara","link":"/profile/8299461/","image":"https://www.gaiagps.com/profile/8299461/photo/"},"favorite_count":0,"comment_count":0,"comments":[],"user_photo_count":4,"photos":[{"id":"c979e2eb10ad13f4a80da47e1c1ae20d","time_created":"2025-07-02T21:46:44Z","title":"Mi foto - 2/7/25, 4:46:44p. m.","latitude":0.14661560166908272,"longitude":-78.84529462247193,"elevation":1566,"updated_date":"2025-07-03T02:40:28Z","last_updated_on_server":"2026-09-01T17:57:10.955143","deleted":false,"revision":1788285430,"notes":"","waypoint_id":"80e6d9fe12b7e7ab738e218602ed9ff8","imported":false,"public":false,"thumbnail_url":"https://www.gaiagps.com/api/objects/photo/c979e2eb10ad13f4a80da47e1c1ae20d/image/100/","web_url":"https://www.gaiagps.com/api/objects/photo/c979e2eb10ad13f4a80da47e1c1ae20d/image/375/","scaled_url":"https://www.gaiagps.com/api/objects/photo/c979e2eb10ad13f4a80da47e1c1ae20d/image/1000/","fullsize_url":"https://www.gaiagps.com/api/objects/photo/c979e2eb10ad13f4a80da47e1c1ae20d/image/full/"},{"id":"b34025a0fcbbfb5e00ab110bf9c29629","time_created":"2025-07-02T21:48:49Z","title":"Mi foto - 2/7/25, 4:48:49p. m.","latitude":0.1468805,"longitude":-78.84494666666667,"elevation":1561,"updated_date":"2025-07-03T02:45:01Z","last_updated_on_server":"2026-09-01T17:57:10.954143","deleted":false,"revision":1788285430,"notes":"","waypoint_id":"ba8658de0ca6d9df06a8e60124de566b","imported":false,"public":false,"thumbnail_url":"https://www.gaiagps.com/api/objects/photo/b34025a0fcbbfb5e00ab110bf9c29629/image/100/?publickey=gYa5WWT1pFIk2uY7aMv2SNx9","web_url":"https://www.gaiagps.com/api/objects/photo/b34025a0fcbbfb5e00ab110bf9c29629/image/375/?publickey=gYa5WWT1pFIk2uY7aMv2SNx9","scaled_url":"https://www.gaiagps.com/api/objects/photo/b34025a0fcbbfb5e00ab110bf9c29629/image/1000/?publickey=gYa5WWT1pFIk2uY7aMv2SNx9","fullsize_url":"https://www.gaiagps.com/api/objects/photo/b34025a0fcbbfb5e00ab110bf9c29629/image/full/?publickey=gYa5WWT1pFIk2uY7aMv2SNx9"},{"id":"d048e2d84ce51249710aa5f582fe1299","time_created":"2025-07-02T21:48:53Z","title":"Mi foto - 2/7/25, 4:48:53p. m.","latitude":0.14688105703494858,"longitude":-78.844946463774,"elevation":1561,"updated_date":"2025-07-03T02:34:37Z","last_updated_on_server":"2026-09-01T17:57:10.956143","deleted":false,"revision":1788285430,"notes":"","waypoint_id":"9a858e87f11f10a86a10e705c9fff9f1","imported":false,"public":false,"thumbnail_url":"https://www.gaiagps.com/api/objects/photo/d048e2d84ce51249710aa5f582fe1299/image/100/","web_url":"https://www.gaiagps.com/api/objects/photo/d048e2d84ce51249710aa5f582fe1299/image/375/","scaled_url":"https://www.gaiagps.com/api/objects/photo/d048e2d84ce51249710aa5f582fe1299/image/1000/","fullsize_url":"https://www.gaiagps.com/api/objects/photo/d048e2d84ce51249710aa5f582fe1299/image/full/"},{"id":"3b60b41dc2692d6aa44b5ba1449e3239","time_created":"2025-07-02T22:07:29Z","title":"Mi foto - 2/7/25, 5:07:29p. m.","latitude":0.15146458165980997,"longitude":-78.84227231648951,"elevation":1539,"updated_date":"2025-07-03T02:34:37Z","last_updated_on_server":"2026-09-01T17:57:10.953143","deleted":false,"revision":1788285430,"notes":"","waypoint_id":"ee55243031f4e9cf7bcbcccccc66b0d0","imported":false,"public":false,"thumbnail_url":"https://www.gaiagps.com/api/objects/photo/3b60b41dc2692d6aa44b5ba1449e3239/image/100/","web_url":"https://www.gaiagps.com/api/objects/photo/3b60b41dc2692d6aa44b5ba1449e3239/image/375/","scaled_url":"https://www.gaiagps.com/api/objects/photo/3b60b41dc2692d6aa44b5ba1449e3239/image/1000/","fullsize_url":"https://www.gaiagps.com/api/objects/photo/3b60b41dc2692d6aa44b5ba1449e3239/image/full/"}],"latitude":0.14890730155038703,"longitude":-78.84359746501543,"writable":false},"style":{"stroke":"#0479FF"},"geometry":{"type":"MultiLineString","coordinates":[[[-78.845276,0.14662,1564.3,1751492789.0],[-78.845263,0.146635,1566.4,1751492797.0],[-78.845284,0.146621,1560.0,1751492802.0],[-78.845263,0.146617,1565.0,1751492816.0],[-78.845219,0.146689,1560.0,1751492843.0],[-78.845184,0.14669,1561.0,1751492848.0],[-78.845131,0.146769,1562.0,1751492862.0],[-78.845038,0.146828,1555.0,1751492878.0],[-78.844987,0.14688,1554.0,1751492888.0],[-78.844938,0.146884,1556.0,1751493001.0],[-78.844891,0.14693,1560.0,1751493060.0],[-78.844879,0.146998,1556.0,1751493065.0],[-78.844836,0.147063,1554.0,1751493074.0],[-78.84487,0.147135,1552.0,1751493082.0],[-78.844851,0.147179,1552.0,1751493088.0],[-78.844849,0.147234,1550.0,1751493094.0],[-78.84483,0.147263,1551.3,1751493098.0],[-78.844818,0.147321,1545.0,1751493107.0],[-78.844737,0.147378,1544.0,1751493118.0],[-78.844672,0.147397,1544.0,1751493129.0],[-78.844639,0.147396,1545.0,1751493133.0],[-78.844606,0.14743,1544.0,1751493138.0],[-78.844545,0.14754,1544.0,1751493154.0],[-78.844484,0.147576,1545.0,1751493164.0],[-78.844439,0.147624,1545.0,1751493173.0],[-78.844408,0.14764,1545.0,1751493177.0],[-78.844378,0.147691,1544.0,1751493185.0],[-78.844324,0.147728,1544.0,1751493195.0],[-78.844313,0.147761,1542.7,1751493199.0],[-78.844236,0.147851,1544.0,1751493225.0],[-78.844121,0.147917,1546.0,1751493273.0],[-78.844101,0.147962,1546.0,1751493279.0],[-78.844057,0.148,1542.0,1751493286.0],[-78.844022,0.148055,1542.0,1751493294.0],[-78.844004,0.14815,1540.0,1751493306.0],[-78.843973,0.148156,1539.0,1751493310.0],[-78.843889,0.148212,1536.0,1751493323.0],[-78.84386,0.148277,1538.0,1751493331.0],[-78.843697,0.148426,1536.0,1751493361.0],[-78.843682,0.148459,1535.0,1751493365.0],[-78.843621,0.148508,1538.0,1751493378.0],[-78.843587,0.148514,1539.0,1751493382.0],[-78.843559,0.148555,1536.0,1751493390.0],[-78.843555,0.148623,1536.0,1751493399.0],[-78.843501,0.148803,1534.0,1751493428.0],[-78.843482,0.148839,1536.0,1751493435.0],[-78.843386,0.14895,1533.0,1751493456.0],[-78.84336,0.149006,1532.0,1751493464.0],[-78.843307,0.149054,1532.0,1751493472.0],[-78.843239,0.14909,1535.0,1751493538.0],[-78.843211,0.149141,1536.0,1751493562.0],[-78.843217,0.149184,1536.0,1751493566.0],[-78.8432,0.149244,1536.0,1751493571.0],[-78.843211,0.149274,1536.0,1751493574.0],[-78.843217,0.1494,1534.0,1751493583.0],[-78.843104,0.149508,1532.0,1751493602.0],[-78.843053,0.149603,1535.0,1751493618.0],[-78.842947,0.149649,1535.0,1751493694.0],[-78.842922,0.149672,1536.0,1751493698.0],[-78.842863,0.149785,1535.0,1751493712.0],[-78.842838,0.149811,1536.0,1751493715.0],[-78.842822,0.149917,1532.0,1751493727.0],[-78.842836,0.149972,1532.0,1751493735.0],[-78.842807,0.150049,1533.8,1751493749.0],[-78.842787,0.150157,1531.0,1751493766.0],[-78.842744,0.150256,1535.0,1751493782.0],[-78.842717,0.150274,1536.0,1751493785.0],[-78.842677,0.150352,1532.3,1751493804.0],[-78.842695,0.150436,1527.0,1751493814.0],[-78.842682,0.150467,1527.0,1751493817.0],[-78.842684,0.15051,1525.0,1751493822.0],[-78.842712,0.150549,1524.0,1751493826.0],[-78.842649,0.150644,1520.0,1751493836.0],[-78.842583,0.150691,1524.0,1751493843.0],[-78.842546,0.15074,1524.0,1751493849.0],[-78.842509,0.150822,1521.0,1751493859.0],[-78.842508,0.150879,1521.0,1751493870.0],[-78.842468,0.15111,1524.0,1751493900.0],[-78.842394,0.151214,1513.0,1751493922.0],[-78.842369,0.151298,1526.0,1751493954.0],[-78.842353,0.151322,1530.0,1751493958.0],[-78.842348,0.151362,1532.0,1751493967.0],[-78.84233,0.151389,1524.0,1751493976.0],[-78.842273,0.151438,1530.0,1751493987.0],[-78.842242,0.151441,1530.0,1751493992.0],[-78.842254,0.151466,1534.0,1751494006.0],[-78.842269,0.151471,1537.3,1751494014.0]]]}},{"type":"Feature","properties":{"id":"af0107ca4759a55b92d1980033a1b739","updated_date":"2026-09-01T17:57:10Z","time_created":"2025-07-02T21:37:54Z","last_updated_on_server":"2026-09-01T17:59:00.193446","db_insert_date":"2025-07-02T22:37:41Z","deleted":false,"title":"Camino del desobligo","public":true,"color":"{0.176, 0.247, 0.780, 1.000}","hexcolor":"#2D3FC7","is_active":true,"revision":1788285540,"notes":"","track_type":"","routing_mode":"pedestrian","uploaded_gpx_to_osm":null,"flag":null,"source":"iPhone16,1","cover_photo_id":null,"distance":150.58762843674285,"total_ascent":27.09999999999991,"total_descent":5.7000000000000455,"stopped_time":0.0,"total_time":342.0,"average_speed":0.44031470303141185,"moving_time":342.0,"moving_speed":0.44031470303141185,"activities":["hiking"],"imported":false,"folder":"048d152d22cf57558680b41a26bfb0de","privacy_level":"public","sync_to_mobile":null,"preferred_link":"/public/Q3N08siJdyVxglbj60e3Tluv","user_displayname":"Benjamín Guevara","username":"EarlyShore7952","user_email":"parenaslovecast@gmail.com","user_id":8299461,"created_by":{"id":8299461,"displayName":"Benjamín Guevara","link":"/profile/8299461/","image":"https://www.gaiagps.com/profile/8299461/photo/"},"favorite_count":0,"comment_count":0,"comments":[],"user_photo_count":1,"photos":[{"id":"224b425c387665d2aafbcc1b3ed19236","time_created":"2025-07-02T21:38:56Z","title":"Cámara 1 (ruta del desobligo)","latitude":0.14781561410585578,"longitude":-78.84586396114827,"elevation":1538,"updated_date":"2025-07-03T02:40:28Z","last_updated_on_server":"2026-09-01T17:57:11.002890","deleted":false,"revision":1788285431,"notes":"","waypoint_id":"259b65d631380472977b81674bf88b1d","imported":false,"public":false,"thumbnail_url":"https://www.gaiagps.com/api/objects/photo/224b425c387665d2aafbcc1b3ed19236/image/100/","web_url":"https://www.gaiagps.com/api/objects/photo/224b425c387665d2aafbcc1b3ed19236/image/375/","scaled_url":"https://www.gaiagps.com/api/objects/photo/224b425c387665d2aafbcc1b3ed19236/image/1000/","fullsize_url":"https://www.gaiagps.com/api/objects/photo/224b425c387665d2aafbcc1b3ed19236/image/full/"}],"latitude":0.14720157098412673,"longitude":-78.84563361384348,"writable":false},"style":{"stroke":"#2D3FC7"},"geometry":{"type":"MultiLineString","coordinates":[[[-78.845866,0.147818,1541.7,1751492274.0],[-78.845834,0.14776,1540.0,1751492364.0],[-78.845832,0.147697,1542.0,1751492383.0],[-78.845759,0.147575,1536.0,1751492407.0],[-78.84575,0.147525,1540.0,1751492414.0],[-78.8457,0.147464,1536.0,1751492425.0],[-78.84568,0.147379,1536.0,1751492446.0],[-78.845661,0.147341,1536.0,1751492452.0],[-78.845666,0.147261,1539.0,1751492464.0],[-78.845686,0.147253,1539.0,1751492466.0],[-78.84566,0.147167,1544.0,1751492481.0],[-78.84566,0.147132,1543.0,1751492487.0],[-78.845675,0.147092,1545.0,1751492494.0],[-78.845568,0.146971,1552.0,1751492524.0],[-78.845555,0.146913,1554.0,1751492532.0],[-78.845513,0.146865,1554.0,1751492543.0],[-78.845481,0.146805,1558.0,1751492557.0],[-78.845369,0.14668,1560.0,1751492589.0],[-78.845304,0.146644,1563.1,1751492616.0]]]}},{"type":"Feature","geometry":{"type":"Point","coordinates":[-78.84641,0.1528]},"id":"f8a041e8b0c3fbab7f1f8eea93495278","properties":{"id":"f8a041e8b0c3fbab7f1f8eea93495278","updated_date":"2026-09-01T21:53:02Z","time_created":"2026-08-25T15:47:26Z","deleted":true,"title":"Cámara oso 2","public":false,"is_active":true,"icon":"red-pin-down.png","revision":1788299582,"notes":"","latitude":0.1528,"longitude":-78.84641,"elevation":1400,"attr":null,"track_id":"","order":null,"folder":"048d152d22cf57558680b41a26bfb0de","marker_type":"pin","marker_color":"#F42410","marker_decoration":null,"sync_to_mobile":null,"cover_photo_id":null,"photos":[]}},{"type":"Feature","geometry":{"type":"Point","coordinates":[-78.84735,0.15463]},"id":"9aacd4779723e0358c04a924f464fa3e","properties":{"id":"9aacd4779723e0358c04a924f464fa3e","updated_date":"2026-09-01T21:53:02Z","time_created":"2026-08-25T15:25:56Z","deleted":true,"title":"Cámara oso 1","public":false,"is_active":true,"icon":"red-pin-down.png","revision":1788299582,"notes":"","latitude":0.15463,"longitude":-78.84735,"elevation":1345,"attr":null,"track_id":"","order":null,"folder":"048d152d22cf57558680b41a26bfb0de","marker_type":"pin","marker_color":"#F42410","marker_decoration":null,"sync_to_mobile":null,"cover_photo_id":null,"photos":[]}},{"type":"Feature","geometry":{"type":"Point","coordinates":[-78.84332,0.154]},"id":"a78155f596493dc08f1d50a9c6cc3db2","properties":{"id":"a78155f596493dc08f1d50a9c6cc3db2","updated_date":"2026-09-01T21:50:20Z","time_created":"2025-07-03T18:03:28Z","deleted":true,"title":"Cámara (baño de bosque)","public":false,"is_active":true,"icon":"red-pin-down.png","revision":1788299420,"notes":"","latitude":0.154,"longitude":-78.84332,"elevation":null,"attr":null,"track_id":"8b7ad9aaa39c4cbe274499de0216ac43","order":0,"folder":"048d152d22cf57558680b41a26bfb0de","marker_type":"pin","marker_color":"#F42410","marker_decoration":null,"sync_to_mobile":null,"cover_photo_id":null,"photos":[]}}]}