<?xml version="1.0" encoding="UTF-8"?>
<kml xmlns="http://www.opengis.net/kml/2.2" xmlns:gx="http://www.google.com/kml/ext/2.2">
    <Document id="1">
        <Folder id="2">
            <Style id="5">
                <IconStyle id="6">
                    <colorMode>normal</colorMode>
                    <scale>1</scale>
                    <heading>0</heading>
                    <Icon id="7">
                        <href>red-pin-down.png</href>
                    </Icon>
                </IconStyle>
            </Style>
            <Style id="10">
                <IconStyle id="11">
                    <colorMode>normal</colorMode>
                    <scale>1</scale>
                    <heading>0</heading>
                    <Icon id="12">
                        <href>red-pin-down.png</href>
                    </Icon>
                </IconStyle>
            </Style>
            <Style id="15">
                <IconStyle id="16">
                    <colorMode>normal</colorMode>
                    <scale>1</scale>
                    <heading>0</heading>
                    <Icon id="17">
                        <href>red-pin-down.png</href>
                    </Icon>
                </IconStyle>
            </Style>
            <Style id="26">
                <IconStyle id="27">
                    <colorMode>normal</colorMode>
                    <scale>1</scale>
                    <heading>0</heading>
                    <Icon id="28">
                        <href>red-pin-down.png</href>
                    </Icon>
                </IconStyle>
            </Style>
            <Style id="37">
                <IconStyle id="38">
                    <colorMode>normal</colorMode>
                    <scale>1</scale>
                    <heading>0</heading>
                    <Icon id="39">
                        <href>camera-24</href>
                    </Icon>
                </IconStyle>
            </Style>
            <Style id="42">
                <IconStyle id="43">
                    <colorMode>normal</colorMode>
                    <scale>1</scale>
                    <heading>0</heading>
                    <Icon id="44">
                        <href>red-pin-down.png</href>
                    </Icon>
                </IconStyle>
            </Style>
            <Style id="53">
                <IconStyle id="54">
                    <colorMode>normal</colorMode>
                    <scale>1</scale>
                    <heading>0</heading>
                    <Icon id="55">
                        <href>camera-24</href>
                    </Icon>
                </IconStyle>
            </Style>
            <Style id="64">
                <IconStyle id="65">
                    <colorMode>normal</colorMode>
                    <scale>1</scale>
                    <heading>0</heading>
                    <Icon id="66">
                        <href>red-pin-down.png</href>
                    </Icon>
                </IconStyle>
            </Style>
            <Style id="69">
                <IconStyle id="70">
                    <colorMode>normal</colorMode>
                    <scale>1</scale>
                    <heading>0</heading>
                    <Icon id="71">
                        <href>red-pin-down.png</href>
                    </Icon>
                </IconStyle>
            </Style>
            <Style id="74">
                <IconStyle id="75">
                    <colorMode>normal</colorMode>
                    <scale>1</scale>
                    <heading>0</heading>
                    <Icon id="76">
                        <href>red-pin-down.png</href>
                    </Icon>
                </IconStyle>
            </Style>
            <Style id="85">
                <IconStyle id="86">
                    <colorMode>normal</colorMode>
                    <scale>1</scale>
                    <heading>0</heading>
                    <Icon id="87">
                        <href>red-pin-down.png</href>
                    </Icon>
                </IconStyle>
            </Style>
            <Style id="90">
                <IconStyle id="91">
                    <colorMode>normal</colorMode>
                    <scale>1</scale>
                    <heading>0</heading>
                    <Icon id="92">
                        <href>red-pin-down.png</href>
                    </Icon>
                </IconStyle>
            </Style>
            <Style id="95">
                <IconStyle id="96">
                    <colorMode>normal</colorMode>
                    <scale>1</scale>
                    <heading>0</heading>
                    <Icon id="97">
                        <href>red-pin-down.png</href>
                    </Icon>
                </IconStyle>
            </Style>
            <Style id="100">
                <IconStyle id="101">
                    <colorMode>normal</colorMode>
                    <scale>1</scale>
                    <heading>0</heading>
                    <Icon id="102">
                        <href>camera-24</href>
                    </Icon>
                </IconStyle>
            </Style>
            <Style id="105">
                <IconStyle id="106">
                    <colorMode>normal</colorMode>
                    <scale>1</scale>
                    <heading>0</heading>
                    <Icon id="107">
                        <href>camera-24</href>
                    </Icon>
                </IconStyle>
            </Style>
            <Style id="110">
                <IconStyle id="111">
                    <colorMode>normal</colorMode>
                    <scale>1</scale>
                    <heading>0</heading>
                    <Icon id="112">
                        <href>red-pin-down.png</href>
                    </Icon>
                </IconStyle>
            </Style>
            <Style id="115">
                <IconStyle id="116">
                    <colorMode>normal</colorMode>
                    <scale>1</scale>
                    <heading>0</heading>
                    <Icon id="117">
                        <href>camera-24</href>
                    </Icon>
                </IconStyle>
            </Style>
            <Style id="126">
                <IconStyle id="127">
                    <colorMode>normal</colorMode>
                    <scale>1</scale>
                    <heading>0</heading>
                    <Icon id="128">
                        <href>red-pin-down.png</href>
                    </Icon>
                </IconStyle>
            </Style>
            <Style id="137">
                <IconStyle id="138">
                    <colorMode>normal</colorMode>
                    <scale>1</scale>
                    <heading>0</heading>
                    <Icon id="139">
                        <href>red-pin-down.png</href>
                    </Icon>
                </IconStyle>
            </Style>
            <Style id="142">
                <IconStyle id="143">
                    <colorMode>normal</colorMode>
                    <scale>1</scale>
                    <heading>0</heading>
                    <Icon id="144">
                        <href>red-pin-down.png</href>
                    </Icon>
                </IconStyle>
            </Style>
            <Style id="157">
                <IconStyle id="158">
                    <colorMode>normal</colorMode>
                    <scale>1</scale>
                    <heading>0</heading>
                    <Icon id="159">
                        <href>red-pin-down.png</href>
                    </Icon>
                </IconStyle>
            </Style>
            <Style id="168">
                <IconStyle id="169">
                    <colorMode>normal</colorMode>
                    <scale>1</scale>
                    <heading>0</heading>
                    <Icon id="170">
                        <href>red-pin-down.png</href>
                    </Icon>
                </IconStyle>
            </Style>
            <Style id="173">
                <IconStyle id="174">
                    <colorMode>normal</colorMode>
                    <scale>1</scale>
                    <heading>0</heading>
                    <Icon id="175">
                        <href>red-pin-down.png</href>
                    </Icon>
                </IconStyle>
            </Style>
            <Style id="184">
                <IconStyle id="185">
                    <colorMode>normal</colorMode>
                    <scale>1</scale>
                    <heading>0</heading>
                    <Icon id="186">
                        <href>camera-24</href>
                    </Icon>
                </IconStyle>
            </Style>
            <Style id="189">
                <IconStyle id="190">
                    <colorMode>normal</colorMode>
                    <scale>1</scale>
                    <heading>0</heading>
                    <Icon id="191">
                        <href>camera-24</href>
                    </Icon>
                </IconStyle>
            </Style>
            <Style id="194">
                <IconStyle id="195">
                    <colorMode>normal</colorMode>
                    <scale>1</scale>
                    <heading>0</heading>
                    <Icon id="196">
                        <href>camera-24</href>
                    </Icon>
                </IconStyle>
            </Style>
            <Style id="199">
                <IconStyle id="200">
                    <colorMode>normal</colorMode>
                    <scale>1</scale>
                    <heading>0</heading>
                    <Icon id="201">
                        <href>camera-24</href>
                    </Icon>
                </IconStyle>
            </Style>
            <Style id="210">
                <IconStyle id="211">
                    <colorMode>normal</colorMode>
                    <scale>1</scale>
                    <heading>0</heading>
                    <Icon id="212">
                        <href>red-pin-down.png</href>
                    </Icon>
                </IconStyle>
            </Style>
            <Style id="215">
                <IconStyle id="216">
                    <colorMode>normal</colorMode>
                    <scale>1</scale>
                    <heading>0</heading>
                    <Icon id="217">
                        <href>red-pin-down.png</href>
                    </Icon>
                </IconStyle>
            </Style>
            <name>Rutas Reserva</name>
            <description/>
            <Placemark id="4">
                <name>Cámara oso 2</name>
                <description/>
                <styleUrl>#5</styleUrl>
                <Point id="3">
                    <coordinates>-78.84641,0.1528,1400</coordinates>
                </Point>
            </Placemark>
            <Placemark id="9">
                <name>Cámara oso 1</name>
                <description/>
                <styleUrl>#10</styleUrl>
                <Point id="8">
                    <coordinates>-78.84735,0.15463,1345</coordinates>
                </Point>
            </Placemark>
            <Placemark id="14">
                <name>Cámara (baño de bosque)</name>
                <description/>
                <styleUrl>#15</styleUrl>
                <Point id="13">
                    <coordinates>-78.84332,0.154,0.0</coordinates>
                </Point>
            </Placemark>
            <Placemark id="19">
                <Style id="22">
                    <LineStyle id="23">
                        <color>ff8C7A5E</color>
                        <colorMode>normal</colorMode>
                        <width>1</width>
                    </LineStyle>
                </Style>
                <name>Sendero baño de bosque</name>
                <description/>
                <MultiGeometry id="18">
                    <LineString id="20">
                        <extrude>0</extrude>
                        <altitudeMode>clampToGround</altitudeMode>
                        <coordinates>-78.844416,0.154331,1477.7 -78.844423,0.154346,1477.1 -78.844436,0.154338,1477.8 -78.84444,0.154349,1478.7 -78.844426,0.154338,1479.2 -78.844394,0.154245,1479.0 -78.844346,0.15417,1482.0 -78.844281,0.15412,1480.0 -78.844241,0.154045,1482.0 -78.844202,0.154065,1482.0 -78.844161,0.154051,1485.0 -78.844121,0.154066,1484.0 -78.844155,0.154085,1484.0 -78.844145,0.154046,1490.0 -78.844112,0.154075,1490.0 -78.844073,0.154052,1490.0 -78.844053,0.154023,1486.0 -78.844001,0.153992,1488.0 -78.843969,0.154008,1490.0 -78.843953,0.153969,1474.0 -78.843921,0.153985,1490.0 -78.843906,0.15394,1488.0 -78.843865,0.153907,1481.0 -78.843717,0.153839,1487.0 -78.843614,0.153831,1484.0 -78.843598,0.153805,1483.0 -78.843564,0.153825,1486.0 -78.843572,0.153771,1482.0 -78.843536,0.153748,1467.0 -78.843432,0.153784,1482.0 -78.84344,0.153765,1484.0 -78.843433,0.153763,1479.0 -78.843438,0.153835,1476.0 -78.84348,0.15388,1463.0 -78.843466,0.153911,1469.0 -78.843495,0.153898,1464.0 -78.843445,0.153928,1476.0 -78.843418,0.153988,1470.0 -78.843364,0.153984,1468.0 -78.843332,0.154009,1458.0 -78.843328,0.153998,1467.0 -78.843293,0.154016,1465.0 -78.843273,0.15404,1464.0 -78.84327,0.15408,1465.0 -78.843237,0.154101,1466.0 -78.843235,0.154059,1467.0 -78.843275,0.154045,1459.0 -78.843354,0.154098,1459.0 -78.843346,0.154132,1455.0 -78.843245,0.154172,1449.0 -78.843186,0.154227,1454.3 -78.843154,0.154227,1454.0 -78.843139,0.15428,1451.0 -78.843096,0.154277,1450.0 -78.843033,0.154345,1445.0 -78.843091,0.154463,1435.0 -78.843108,0.154481,1438.0 -78.843197,0.154532,1435.0 -78.843311,0.154548,1434.0 -78.843375,0.154636,1433.0 -78.843411,0.154656,1428.0 -78.843405,0.154714,1428.0 -78.843369,0.154723,1424.0 -78.843354,0.154752,1426.0 -78.84331,0.15479,1427.0 -78.843309,0.154867,1422.0 -78.843343,0.154919,1420.0 -78.843275,0.154982,1418.0 -78.843255,0.155042,1416.0 -78.843254,0.155082,1411.0 -78.84329,0.155131,1412.0 -78.8433,0.155164,1407.0 -78.843327,0.155184,1410.0 -78.843402,0.155208,1408.0 -78.843424,0.155239,1407.0 -78.843465,0.155376,1403.0 -78.843501,0.155394,1402.0 -78.843603,0.155373,1405.0 -78.843646,0.155392,1400.0 -78.843621,0.155449,1404.0 -78.843627,0.15548,1408.0 -78.843659,0.155502,1410.0 -78.843716,0.155474,1410.0 -78.843762,0.155425,1412.0 -78.843851,0.155406,1408.0 -78.843852,0.155367,1417.0 -78.843973,0.155321,1420.0 -78.843967,0.155414,1423.0 -78.844011,0.155485,1414.0 -78.844078,0.155533,1420.0 -78.844126,0.155479,1416.0 -78.84415,0.155465,1418.0 -78.844286,0.15546,1420.0 -78.844327,0.155477,1420.0 -78.844374,0.155466,1417.0 -78.844381,0.155504,1416.0 -78.844405,0.155533,1416.0 -78.844476,0.155577,1416.0 -78.844524,0.155655,1416.0 -78.844513,0.155703,1416.0 -78.84452,0.155738,1416.0 -78.844576,0.155797,1415.0 -78.844585,0.155834,1414.0 -78.84461,0.155854,1408.0 -78.844672,0.155872,1416.0 -78.844789,0.155875,1414.0 -78.844814,0.155895,1416.0 -78.844829,0.155924,1417.0 -78.844786,0.155998,1418.0 -78.844763,0.156096,1416.0 -78.84478,0.156162,1416.0 -78.844817,0.156197,1416.0 -78.844894,0.156141,1422.0 -78.844932,0.15614,1422.0 -78.84496,0.156121,1425.0 -78.845016,0.156042,1424.0 -78.84506,0.15594,1424.0 -78.84511,0.155907,1429.2 -78.845121,0.155921,1429.0 -78.8451,0.155883,1428.0 -78.845027,0.155933,1426.0 -78.844963,0.156083,1424.0 -78.844932,0.156121,1423.9</coordinates>
                    </LineString>
                </MultiGeometry>
            </Placemark>
            <Placemark id="25">
                <name>Mirador de aves</name>
                <description/>
                <styleUrl>#26</styleUrl>
                <Point id="24">
                    <coordinates>-78.84347,0.15537,0.0</coordinates>
                </Point>
            </Placemark>
            <Placemark id="30">
                <Style id="33">
                    <LineStyle id="34">
                        <color>ffC22657</color>
                        <colorMode>normal</colorMode>
                        <width>1</width>
                    </LineStyle>
                </Style>
                <name>Ruta de la guacharaca</name>
                <description/>
                <MultiGeometry id="29">
                    <LineString id="31">
                        <extrude>0</extrude>
                        <altitudeMode>clampToGround</altitudeMode>
                        <coordinates>-78.847539,0.149025,1484.4 -78.847493,0.149049,1484.3 -78.847519,0.149038,1483.0 -78.847516,0.148939,1479.0 -78.847449,0.148859,1481.0 -78.847403,0.148865,1477.0 -78.847374,0.148919,1480.0 -78.847343,0.148935,1485.0 -78.847295,0.148934,1487.0 -78.847209,0.148888,1491.0 -78.847129,0.148897,1494.5 -78.847117,0.148882,1494.0 -78.84705,0.148851,1485.0 -78.846969,0.148798,1500.0 -78.846918,0.148724,1508.0 -78.846919,0.148659,1505.0 -78.846868,0.148521,1505.0 -78.846872,0.148456,1510.0 -78.846849,0.148431,1507.0 -78.846836,0.148367,1504.0 -78.84679,0.148337,1511.0 -78.846809,0.148378,1504.0 -78.846805,0.148353,1516.0 -78.846834,0.148311,1510.0 -78.84681,0.148314,1509.0 -78.846765,0.148274,1514.0 -78.84671,0.148202,1507.0 -78.846677,0.148188,1512.0 -78.846622,0.148145,1512.0 -78.846491,0.148137,1516.0 -78.846419,0.148113,1518.0 -78.846361,0.148116,1520.0 -78.846281,0.148031,1525.0 -78.846253,0.148015,1528.0 -78.846191,0.148012,1528.0 -78.846025,0.147863,1530.0 -78.845865,0.147812,1539.6</coordinates>
                    </LineString>
                </MultiGeometry>
            </Placemark>
            <Placemark id="36">
                <name>Mi foto - 2/7/25, 3:22:10p. m.</name>
                <description/>
                <styleUrl>#37</styleUrl>
                <Point id="35">
                    <coordinates>-78.84663333333333,0.14813333333333334,1517</coordinates>
                </Point>
            </Placemark>
            <Placemark id="41">
                <name>Punto de cámara (guacharaca)</name>
                <description/>
                <styleUrl>#42</styleUrl>
                <Point id="40">
                    <coordinates>-78.84682,0.14836,0.0</coordinates>
                </Point>
            </Placemark>
            <Placemark id="46">
                <Style id="49">
                    <LineStyle id="50">
                        <color>ffE1DA00</color>
                        <colorMode>normal</colorMode>
                        <width>1</width>
                    </LineStyle>
                </Style>
                <name>Casa Xavier</name>
                <description/>
                <MultiGeometry id="45">
                    <LineString id="47">
                        <extrude>0</extrude>
                        <altitudeMode>clampToGround</altitudeMode>
                        <coordinates>-78.844681,0.154677,1470.6 -78.844657,0.154625,1469.7 -78.844675,0.154637,1469.4 -78.844772,0.154631,1464.0 -78.844722,0.154616,1463.0 -78.844775,0.154656,1459.0 -78.844803,0.154651,1461.0 -78.84484,0.154672,1456.0 -78.84485,0.154708,1458.0 -78.844895,0.154756,1460.0 -78.844911,0.154794,1458.0 -78.844912,0.154824,1456.0 -78.844932,0.154839,1455.0 -78.844918,0.154949,1455.0 -78.844905,0.154988,1453.0 -78.84488,0.155021,1452.0 -78.844885,0.155081,1452.0 -78.844872,0.155115,1452.0 -78.84492,0.15528,1449.0 -78.844912,0.155346,1447.0 -78.844919,0.15538,1444.0 -78.844944,0.155407,1443.0 -78.844982,0.155426,1444.0 -78.845094,0.155515,1440.0 -78.845173,0.15566,1434.0 -78.84519,0.155811,1430.0 -78.845137,0.155876,1430.0 -78.84513,0.155924,1430.9</coordinates>
                    </LineString>
                </MultiGeometry>
            </Placemark>
            <Placemark id="52">
                <name>Mi foto - 2/7/25, 5:37:04p. m.</name>
                <description/>
                <styleUrl>#53</styleUrl>
                <Point id="51">
                    <coordinates>-78.8451168442941,0.15595716135024318,1428</coordinates>
                </Point>
            </Placemark>
            <Placemark id="57">
                <Style id="60">
                    <LineStyle id="61">
                        <color>ffFF7904</color>
                        <colorMode>normal</colorMode>
                        <width>1</width>
                    </LineStyle>
                </Style>
                <name>Cascada del Oso</name>
                <description/>
                <MultiGeometry id="56">
                    <LineString id="58">
                        <extrude>0</extrude>
                        <altitudeMode>clampToGround</altitudeMode>
                        <coordinates>-78.846621,0.154927,1371.3 -78.846662,0.155004,1364.0 -78.846791,0.155093,1359.0 -78.846814,0.155101,1358.0 -78.846873,0.155098,1344.0 -78.846928,0.15505,1351.0 -78.846936,0.155016,1353.0 -78.846873,0.154837,1351.0 -78.846831,0.154804,1352.0 -78.846817,0.154765,1356.0 -78.846723,0.154699,1355.0 -78.846688,0.15461,1356.0 -78.846657,0.154591,1352.0 -78.846631,0.154616,1354.0 -78.846686,0.15456,1354.0 -78.846793,0.154567,1356.0 -78.846836,0.154535,1354.0 -78.846863,0.154556,1355.0 -78.846929,0.154552,1353.0 -78.847032,0.154493,1345.0 -78.847039,0.15444,1341.0 -78.847029,0.154406,1341.0 -78.847037,0.154376,1335.0 -78.847079,0.154411,1340.0 -78.847086,0.154378,1341.3 -78.847098,0.154401,1340.0 -78.84713,0.15439,1336.0 -78.847142,0.154435,1338.0 -78.847172,0.15444,1335.0 -78.847212,0.15453,1331.0 -78.847251,0.15455,1330.0 -78.847282,0.154623,1329.0 -78.847335,0.154608,1329.0 -78.847334,0.154639,1320.0 -78.847379,0.154661,1328.0 -78.847433,0.154627,1320.0 -78.847462,0.154637,1323.0 -78.847467,0.15469,1320.0 -78.847534,0.154785,1316.0 -78.847679,0.154833,1313.0 -78.84772,0.15483,1314.0 -78.847788,0.154849,1300.0 -78.847834,0.154815,1304.0 -78.847976,0.154799,1300.0 -78.847989,0.15474,1296.0 -78.848005,0.15471,1296.0 -78.847997,0.154634,1296.0 -78.848031,0.15466,1290.0 -78.848056,0.154618,1292.0 -78.848046,0.154542,1287.0 -78.848026,0.154517,1285.0 -78.847989,0.154516,1287.0 -78.847973,0.15448,1287.0 -78.848009,0.154428,1290.0 -78.84799,0.154376,1286.0 -78.848118,0.154415,1274.0 -78.848144,0.154391,1278.0 -78.848177,0.15432,1281.0 -78.84816,0.154294,1278.0 -78.848133,0.154203,1280.0 -78.848078,0.154211,1276.0 -78.848025,0.154167,1281.0 -78.847981,0.154164,1268.0 -78.847937,0.154136,1270.0 -78.847968,0.154136,1269.0 -78.847972,0.154052,1275.0 -78.847956,0.154012,1276.0 -78.847979,0.153957,1286.0 -78.847937,0.153937,1286.0 -78.847892,0.153967,1284.0 -78.847914,0.15394,1291.0 -78.847874,0.153987,1278.0 -78.847892,0.153982,1290.0 -78.84788,0.153966,1288.0 -78.84788,0.153845,1292.0 -78.847791,0.153768,1293.0 -78.847816,0.153736,1293.0 -78.847773,0.153753,1303.0 -78.847802,0.153759,1302.0 -78.847786,0.153749,1290.0 -78.847799,0.153711,1290.0 -78.847756,0.153738,1298.0 -78.847718,0.153749,1292.0 -78.847833,0.153727,1296.0 -78.847834,0.153769,1297.0 -78.847774,0.153773,1293.0 -78.847795,0.153751,1298.0 -78.847793,0.153742,1299.8</coordinates>
                    </LineString>
                </MultiGeometry>
            </Placemark>
            <Placemark id="63">
                <name>Segunda cascada grande</name>
                <description/>
                <styleUrl>#64</styleUrl>
                <Point id="62">
                    <coordinates>-78.84788,0.15397,1328</coordinates>
                </Point>
            </Placemark>
            <Placemark id="68">
                <name>Fin de la cascada grande </name>
                <description/>
                <styleUrl>#69</styleUrl>
                <Point id="67">
                    <coordinates>-78.84781,0.15374,1339</coordinates>
                </Point>
            </Placemark>
            <Placemark id="73">
                <name>Richuelo cascada grande</name>
                <description/>
                <styleUrl>#74</styleUrl>
                <Point id="72">
                    <coordinates>-78.84798,0.15417,1320</coordinates>
                </Point>
            </Placemark>
            <Placemark id="78">
                <Style id="81">
                    <LineStyle id="82">
                        <color>ffFFB200</color>
                        <colorMode>normal</colorMode>
                        <width>1</width>
                    </LineStyle>
                </Style>
                <name>Ruta de la fruta azul</name>
                <description>Básicamente porque encontramos muchas de estas frutas por el camino. Estamos en labor de identificarlas. Las probé y son ligeramente dulzonas con una textura que recuerda a la pera</description>
                <MultiGeometry id="77">
                    <LineString id="79">
                        <extrude>0</extrude>
                        <altitudeMode>clampToGround</altitudeMode>
                        <coordinates>-78.842278,0.151465,1538.7 -78.842292,0.151465,1538.5 -78.842295,0.151494,1533.0 -78.842322,0.151465,1532.0 -78.842364,0.15144,1534.0 -78.842411,0.151442,1536.0 -78.842444,0.151493,1538.0 -78.842514,0.151568,1536.0 -78.842522,0.1516,1534.0 -78.842506,0.1517,1532.0 -78.842565,0.151823,1518.0 -78.842577,0.151928,1532.0 -78.842614,0.152031,1536.0 -78.842626,0.152108,1535.0 -78.842777,0.152223,1530.0 -78.842772,0.15228,1533.0 -78.842805,0.152358,1536.0 -78.842797,0.152405,1535.0 -78.842764,0.152424,1534.0 -78.84281,0.152593,1533.0 -78.842864,0.152674,1534.0 -78.842916,0.152687,1538.0 -78.843003,0.152768,1536.0 -78.843065,0.152798,1535.0 -78.843103,0.152895,1533.0 -78.843146,0.152912,1530.0 -78.84319,0.152955,1524.0 -78.843263,0.152985,1525.0 -78.843292,0.153007,1526.0 -78.843501,0.153076,1522.2 -78.843527,0.153098,1518.0 -78.843567,0.153081,1516.0 -78.843583,0.153109,1516.0 -78.843703,0.15318,1515.0 -78.843753,0.153327,1510.0 -78.843799,0.153369,1512.0 -78.843811,0.153449,1505.0 -78.84385,0.153477,1506.0 -78.84397,0.153512,1506.0 -78.844,0.153544,1506.0 -78.844006,0.153579,1506.0 -78.844027,0.153597,1505.0 -78.844122,0.153752,1500.0 -78.844133,0.153793,1504.0 -78.844127,0.153775,1504.0 -78.844222,0.153857,1496.0 -78.844259,0.153878,1494.0 -78.844284,0.153936,1495.0 -78.84433,0.153969,1490.0 -78.844296,0.15397,1488.0 -78.844374,0.154045,1490.0 -78.844449,0.154041,1481.0 -78.844409,0.154062,1483.0 -78.844388,0.154108,1484.0 -78.844429,0.154117,1486.0 -78.844398,0.15409,1486.3 -78.844353,0.15412,1481.0 -78.844449,0.154127,1480.0 -78.844472,0.154095,1482.0 -78.844472,0.15424,1477.0 -78.844428,0.154262,1478.0 -78.844447,0.154333,1476.0 -78.84449,0.154379,1478.0 -78.84453,0.154379,1476.0 -78.844537,0.154413,1474.0 -78.844579,0.154438,1473.0 -78.844615,0.154436,1470.0 -78.844606,0.154489,1470.0 -78.844648,0.154466,1468.0 -78.844686,0.154534,1470.5 -78.844679,0.154671,1472.7</coordinates>
                    </LineString>
                </MultiGeometry>
            </Placemark>
            <Placemark id="84">
                <name>Cámara 3 (camino de la fruta azul)</name>
                <description/>
                <styleUrl>#85</styleUrl>
                <Point id="83">
                    <coordinates>-78.84355,0.15308,0.0</coordinates>
                </Point>
            </Placemark>
            <Placemark id="89">
                <name>Posible camino del puma </name>
                <description/>
                <styleUrl>#90</styleUrl>
                <Point id="88">
                    <coordinates>-78.84413,0.15379,0.0</coordinates>
                </Point>
            </Placemark>
            <Placemark id="94">
                <name>Cámara 1 (camino de la fruta azul)</name>
                <description/>
                <styleUrl>#95</styleUrl>
                <Point id="93">
                    <coordinates>-78.8429,0.15269,0.0</coordinates>
                </Point>
            </Placemark>
            <Placemark id="99">
                <name>Mi foto - 2/7/25, 1:39:02p. m.</name>
                <description/>
                <styleUrl>#100</styleUrl>
                <Point id="98">
                    <coordinates>-78.845375,0.15358333333333332,1493</coordinates>
                </Point>
            </Placemark>
            <Placemark id="104">
                <name>Mi foto - 2/7/25, 3:37:51p. m.</name>
                <description/>
                <styleUrl>#105</styleUrl>
                <Point id="103">
                    <coordinates>-78.84735,0.149025,1487</coordinates>
                </Point>
            </Placemark>
            <Placemark id="109">
                <name>Cámara 2 (Camino de la fruta azul)</name>
                <description/>
                <styleUrl>#110</styleUrl>
                <Point id="108">
                    <coordinates>-78.84294,0.15268,0.0</coordinates>
                </Point>
            </Placemark>
            <Placemark id="114">
                <name>Mi foto - 2/7/25, 5:31:00p. m.</name>
                <description>Lugar donde apareció el puma por primera vez</description>
                <styleUrl>#115</styleUrl>
                <Point id="113">
                    <coordinates>-78.84468621431844,0.15467920236873678,1472</coordinates>
                </Point>
            </Placemark>
            <Placemark id="119">
                <Style id="122">
                    <LineStyle id="123">
                        <color>ff78A400</color>
                        <colorMode>normal</colorMode>
                        <width>1</width>
                    </LineStyle>
                </Style>
                <name>Camino de la cascada </name>
                <description/>
                <MultiGeometry id="118">
                    <LineString id="120">
                        <extrude>0</extrude>
                        <altitudeMode>clampToGround</altitudeMode>
                        <coordinates>-78.845612,0.156288,1414.1 -78.845658,0.156292,1413.9 -78.845727,0.156217,1412.0 -78.845759,0.156209,1406.0 -78.845786,0.156182,1404.0 -78.845784,0.156147,1402.0 -78.84573,0.156113,1404.0 -78.845719,0.156049,1403.0 -78.845764,0.156012,1405.0 -78.845763,0.155929,1406.0 -78.845791,0.15592,1404.0 -78.845895,0.155941,1395.0 -78.84592,0.155911,1396.0 -78.845945,0.155836,1396.2 -78.845936,0.15574,1394.0 -78.845945,0.15571,1390.0 -78.846004,0.155616,1392.0 -78.846013,0.155558,1398.0 -78.846046,0.155534,1391.0 -78.846007,0.155433,1392.0 -78.846011,0.155369,1392.0 -78.846002,0.155311,1390.0 -78.845983,0.155268,1390.0 -78.845996,0.155224,1389.0 -78.846027,0.155189,1395.0 -78.846021,0.155146,1392.0 -78.846039,0.155042,1398.0 -78.846037,0.155002,1396.0 -78.846077,0.154959,1396.2 -78.846123,0.154934,1387.0 -78.84619,0.154945,1386.0 -78.846233,0.15492,1385.0 -78.846214,0.15492,1384.0 -78.846146,0.154862,1386.0 -78.846125,0.154786,1388.0 -78.846133,0.154753,1386.0 -78.846084,0.154707,1386.0 -78.846082,0.154531,1396.0 -78.845966,0.154269,1395.0 -78.845869,0.154213,1395.0 -78.845932,0.154055,1393.0 -78.845959,0.154038,1390.0 -78.845962,0.154,1392.0 -78.845951,0.153968,1390.0 -78.845913,0.153934,1390.0 -78.845903,0.153875,1390.0 -78.845837,0.153845,1386.0 -78.845869,0.153587,1395.0 -78.845848,0.153478,1394.0 -78.845855,0.153445,1395.0 -78.845904,0.153407,1400.0 -78.845927,0.153364,1386.0 -78.845902,0.153244,1396.0 -78.845963,0.153059,1396.0 -78.845962,0.153014,1397.0 -78.845943,0.152985,1396.0 -78.846012,0.152941,1395.0 -78.846034,0.1529,1386.0 -78.846085,0.152869,1390.0 -78.846115,0.152831,1391.0 -78.846164,0.1528,1386.0 -78.846191,0.152818,1389.0 -78.846418,0.152791,1380.0 -78.84645,0.152766,1380.0 -78.846457,0.152725,1379.0 -78.846478,0.152709,1378.0 -78.846522,0.152646,1374.0 -78.84655,0.152636,1374.0 -78.846477,0.152607,1374.0 -78.846565,0.152663,1368.0 -78.846574,0.152715,1372.0 -78.846675,0.152698,1372.0 -78.846682,0.152622,1370.0 -78.846674,0.152587,1368.0 -78.846686,0.15255,1363.0 -78.846693,0.152574,1368.0 -78.846768,0.152557,1368.0 -78.846802,0.152493,1368.0 -78.846828,0.152465,1376.0 -78.84677,0.152481,1370.0 -78.846797,0.152463,1369.0 -78.846774,0.152437,1367.0 -78.8468,0.152445,1369.0 -78.846817,0.152412,1373.8 -78.846783,0.152343,1375.3 -78.846759,0.152315,1375.0 -78.846783,0.152391,1375.3 -78.846699,0.152271,1380.0 -78.846834,0.152456,1380.0 -78.846753,0.152437,1373.0 -78.84677,0.152467,1372.0 -78.846735,0.152446,1365.0 -78.846739,0.152435,1364.8</coordinates>
                    </LineString>
                </MultiGeometry>
            </Placemark>
            <Placemark id="125">
                <name>Cascada</name>
                <description/>
                <styleUrl>#126</styleUrl>
                <Point id="124">
                    <coordinates>-78.84671,0.15246,0.0</coordinates>
                </Point>
            </Placemark>
            <Placemark id="130">
                <Style id="133">
                    <LineStyle id="134">
                        <color>ffC73F2D</color>
                        <colorMode>normal</colorMode>
                        <width>1</width>
                    </LineStyle>
                </Style>
                <name>ruta de la fruta azul (loma)</name>
                <description/>
                <MultiGeometry id="129">
                    <LineString id="131">
                        <extrude>0</extrude>
                        <altitudeMode>clampToGround</altitudeMode>
                        <coordinates>-78.843536,0.153105,1506.1982666015624 -78.843536,0.153105,1506.2219482421874 -78.843536,0.153105,1506.217431640625 -78.842858,0.15273,1542.75478515625 -78.842916,0.152741,1532.860986328125 -78.842936,0.152724,1531.50771484375 -78.842912,0.152688,1528.76748046875</coordinates>
                    </LineString>
                </MultiGeometry>
            </Placemark>
            <Placemark id="136">
                <name>Cámara 2 (FECSE)</name>
                <description/>
                <styleUrl>#137</styleUrl>
                <Point id="135">
                    <coordinates>-78.843489,0.15359,0</coordinates>
                </Point>
            </Placemark>
            <Placemark id="141">
                <name>Cámara 2 (Ruta de la fruta azul)</name>
                <description>lo alto de la loma</description>
                <styleUrl>#142</styleUrl>
                <Point id="140">
                    <coordinates>-78.843693,0.153736,0</coordinates>
                </Point>
            </Placemark>
            <Placemark id="146">
                <Style id="149">
                    <LineStyle id="150">
                        <color>ff32BD4A</color>
                        <colorMode>normal</colorMode>
                        <width>1</width>
                    </LineStyle>
                </Style>
                <Style id="153">
                    <LineStyle id="154">
                        <color>ff32BD4A</color>
                        <colorMode>normal</colorMode>
                        <width>1</width>
                    </LineStyle>
                </Style>
                <name>Cascada regreso</name>
                <description/>
                <MultiGeometry id="145">
                    <LineString id="147">
                        <extrude>0</extrude>
                        <altitudeMode>clampToGround</altitudeMode>
                        <coordinates>-78.84659,0.152621,1361.8 -78.846575,0.152678,1378.8 -78.846511,0.152625,1372.0 -78.846474,0.152663,1376.0 -78.846434,0.152685,1374.0 -78.846369,0.152798,1383.0 -78.846327,0.152794,1380.0 -78.846395,0.152812,1385.0 -78.846356,0.152798,1385.9 -78.846385,0.152788,1385.0 -78.846379,0.152824,1384.8 -78.846388,0.152805,1380.0 -78.846394,0.152845,1383.0 -78.846393,0.152788,1371.0 -78.846425,0.152746,1378.0 -78.846397,0.152771,1379.0 -78.846385,0.152796,1378.5</coordinates>
                    </LineString>
                    <LineString id="151">
                        <extrude>0</extrude>
                        <altitudeMode>clampToGround</altitudeMode>
                        <coordinates>-78.846356,0.152753,1384.5 -78.846336,0.152758,1386.2 -78.846328,0.152749,1387.5 -78.846286,0.152762,1372.0 -78.84616,0.152735,1392.0 -78.846101,0.152783,1390.0 -78.846083,0.152821,1392.0 -78.845918,0.152967,1397.0 -78.845946,0.153077,1400.0 -78.845908,0.153154,1398.0 -78.845911,0.15324,1395.0 -78.845886,0.153255,1396.0 -78.845922,0.153284,1395.0 -78.845835,0.153488,1391.0 -78.845827,0.153551,1398.0 -78.845841,0.153591,1395.0 -78.845801,0.153673,1395.0 -78.845837,0.153722,1391.0 -78.845848,0.153761,1395.0 -78.845832,0.153798,1394.0 -78.845795,0.153832,1393.0 -78.845859,0.153842,1393.0 -78.845896,0.153913,1395.0 -78.845927,0.153898,1390.0 -78.845947,0.15392,1392.0 -78.845977,0.153927,1392.0 -78.845901,0.154075,1392.0 -78.845858,0.154129,1392.0 -78.845848,0.154162,1394.0 -78.845895,0.154211,1396.0 -78.845945,0.154311,1398.0 -78.846006,0.15435,1395.0 -78.846035,0.154405,1393.0 -78.84607,0.154522,1386.0 -78.846054,0.154627,1388.0 -78.846068,0.154658,1387.0 -78.846095,0.154632,1393.0 -78.846118,0.154723,1390.0 -78.846111,0.154758,1390.0 -78.846166,0.154861,1389.0 -78.846189,0.154885,1390.0 -78.846187,0.154919,1390.0 -78.846246,0.154919,1388.6</coordinates>
                    </LineString>
                </MultiGeometry>
            </Placemark>
            <Placemark id="156">
                <name>Cámara 1 (camino de la cascada)</name>
                <description/>
                <styleUrl>#157</styleUrl>
                <Point id="155">
                    <coordinates>-78.8464,0.15278,0.0</coordinates>
                </Point>
            </Placemark>
            <Placemark id="161">
                <Style id="164">
                    <LineStyle id="165">
                        <color>ff009DFF</color>
                        <colorMode>normal</colorMode>
                        <width>1</width>
                    </LineStyle>
                </Style>
                <name>Ruta del insecto palo</name>
                <description/>
                <MultiGeometry id="160">
                    <LineString id="162">
                        <extrude>0</extrude>
                        <altitudeMode>clampToGround</altitudeMode>
                        <coordinates>-78.846206,0.154923,1388.0 -78.846218,0.154931,1388.0 -78.846218,0.154948,1385.0 -78.846254,0.154963,1388.0 -78.846401,0.154961,1384.0 -78.846494,0.154944,1379.0 -78.846508,0.154988,1379.0 -78.846492,0.15493,1377.0 -78.846497,0.154917,1381.0</coordinates>
                    </LineString>
                </MultiGeometry>
            </Placemark>
            <Placemark id="167">
                <name>Ruta del insecto palo (cámara)</name>
                <description/>
                <styleUrl>#168</styleUrl>
                <Point id="166">
                    <coordinates>-78.84649,0.15496,0.0</coordinates>
                </Point>
            </Placemark>
            <Placemark id="172">
                <name>Cámara uno (ruta paralela a la cascada)</name>
                <description/>
                <styleUrl>#173</styleUrl>
                <Point id="171">
                    <coordinates>-78.84646,0.15272,0.0</coordinates>
                </Point>
            </Placemark>
            <Placemark id="177">
                <Style id="180">
                    <LineStyle id="181">
                        <color>ffFF7904</color>
                        <colorMode>normal</colorMode>
                        <width>1</width>
                    </LineStyle>
                </Style>
                <name>Camino público </name>
                <description/>
                <MultiGeometry id="176">
                    <LineString id="178">
                        <extrude>0</extrude>
                        <altitudeMode>clampToGround</altitudeMode>
                        <coordinates>-78.845276,0.14662,1564.3 -78.845263,0.146635,1566.4 -78.845284,0.146621,1560.0 -78.845263,0.146617,1565.0 -78.845219,0.146689,1560.0 -78.845184,0.14669,1561.0 -78.845131,0.146769,1562.0 -78.845038,0.146828,1555.0 -78.844987,0.14688,1554.0 -78.844938,0.146884,1556.0 -78.844891,0.14693,1560.0 -78.844879,0.146998,1556.0 -78.844836,0.147063,1554.0 -78.84487,0.147135,1552.0 -78.844851,0.147179,1552.0 -78.844849,0.147234,1550.0 -78.84483,0.147263,1551.3 -78.844818,0.147321,1545.0 -78.844737,0.147378,1544.0 -78.844672,0.147397,1544.0 -78.844639,0.147396,1545.0 -78.844606,0.14743,1544.0 -78.844545,0.14754,1544.0 -78.844484,0.147576,1545.0 -78.844439,0.147624,1545.0 -78.844408,0.14764,1545.0 -78.844378,0.147691,1544.0 -78.844324,0.147728,1544.0 -78.844313,0.147761,1542.7 -78.844236,0.147851,1544.0 -78.844121,0.147917,1546.0 -78.844101,0.147962,1546.0 -78.844057,0.148,1542.0 -78.844022,0.148055,1542.0 -78.844004,0.14815,1540.0 -78.843973,0.148156,1539.0 -78.843889,0.148212,1536.0 -78.84386,0.148277,1538.0 -78.843697,0.148426,1536.0 -78.843682,0.148459,1535.0 -78.843621,0.148508,1538.0 -78.843587,0.148514,1539.0 -78.843559,0.148555,1536.0 -78.843555,0.148623,1536.0 -78.843501,0.148803,1534.0 -78.843482,0.148839,1536.0 -78.843386,0.14895,1533.0 -78.84336,0.149006,1532.0 -78.843307,0.149054,1532.0 -78.843239,0.14909,1535.0 -78.843211,0.149141,1536.0 -78.843217,0.149184,1536.0 -78.8432,0.149244,1536.0 -78.843211,0.149274,1536.0 -78.843217,0.1494,1534.0 -78.843104,0.149508,1532.0 -78.843053,0.149603,1535.0 -78.842947,0.149649,1535.0 -78.842922,0.149672,1536.0 -78.842863,0.149785,1535.0 -78.842838,0.149811,1536.0 -78.842822,0.149917,1532.0 -78.842836,0.149972,1532.0 -78.842807,0.150049,1533.8 -78.842787,0.150157,1531.0 -78.842744,0.150256,1535.0 -78.842717,0.150274,1536.0 -78.842677,0.150352,1532.3 -78.842695,0.150436,1527.0 -78.842682,0.150467,1527.0 -78.842684,0.15051,1525.0 -78.842712,0.150549,1524.0 -78.842649,0.150644,1520.0 -78.842583,0.150691,1524.0 -78.842546,0.15074,1524.0 -78.842509,0.150822,1521.0 -78.842508,0.150879,1521.0 -78.842468,0.15111,1524.0 -78.842394,0.151214,1513.0 -78.842369,0.151298,1526.0 -78.842353,0.151322,1530.0 -78.842348,0.151362,1532.0 -78.84233,0.151389,1524.0 -78.842273,0.151438,1530.0 -78.842242,0.151441,1530.0 -78.842254,0.151466,1534.0 -78.842269,0.151471,1537.3</coordinates>
                    </LineString>
                </MultiGeometry>
            </Placemark>
            <Placemark id="183">
                <name>Mi foto - 2/7/25, 4:46:44p. m.</name>
                <description/>
                <styleUrl>#184</styleUrl>
                <Point id="182">
                    <coordinates>-78.84529462247193,0.14661560166908272,1566</coordinates>
                </Point>
            </Placemark>
            <Placemark id="188">
                <name>Mi foto - 2/7/25, 4:48:53p. m.</name>
                <description/>
                <styleUrl>#189</styleUrl>
                <Point id="187">
                    <coordinates>-78.844946463774,0.14688105703494858,1561</coordinates>
                </Point>
            </Placemark>
            <Placemark id="193">
                <name>Mi foto - 2/7/25, 5:07:29p. m.</name>
                <description/>
                <styleUrl>#194</styleUrl>
                <Point id="192">
                    <coordinates>-78.84227,0.15146,1539</coordinates>
                </Point>
            </Placemark>
            <Placemark id="198">
                <name>Mi foto - 2/7/25, 4:48:49p. m.</name>
                <description/>
                <styleUrl>#199</styleUrl>
                <Point id="197">
                    <coordinates>-78.84494666666667,0.1468805,1561</coordinates>
                </Point>
            </Placemark>
            <Placemark id="203">
                <Style id="206">
                    <LineStyle id="207">
                        <color>ffC73F2D</color>
                        <colorMode>normal</colorMode>
                        <width>1</width>
                    </LineStyle>
                </Style>
                <name>Camino del desobligo</name>
                <description/>
                <MultiGeometry id="202">
                    <LineString id="204">
                        <extrude>0</extrude>
                        <altitudeMode>clampToGround</altitudeMode>
                        <coordinates>-78.845866,0.147818,1541.7 -78.845834,0.14776,1540.0 -78.845832,0.147697,1542.0 -78.845759,0.147575,1536.0 -78.84575,0.147525,1540.0 -78.8457,0.147464,1536.0 -78.84568,0.147379,1536.0 -78.845661,0.147341,1536.0 -78.845666,0.147261,1539.0 -78.845686,0.147253,1539.0 -78.84566,0.147167,1544.0 -78.84566,0.147132,1543.0 -78.845675,0.147092,1545.0 -78.845568,0.146971,1552.0 -78.845555,0.146913,1554.0 -78.845513,0.146865,1554.0 -78.845481,0.146805,1558.0 -78.845369,0.14668,1560.0 -78.845304,0.146644,1563.1</coordinates>
                    </LineString>
                </MultiGeometry>
            </Placemark>
            <Placemark id="209">
                <name>Cámara 1 (ruta del desobligo)</name>
                <description/>
                <styleUrl>#210</styleUrl>
                <Point id="208">
                    <coordinates>-78.84585,0.14783,0.0</coordinates>
                </Point>
            </Placemark>
            <Placemark id="214">
                <name>Ruta del desobligo</name>
                <description>Básicamente una historia que nos contó Rocío, de un señor que solía llevar a las vacas por esa zona y como salía tarde (presumiblemente adrede) cuando empezaba a llover decía: me toca desobligarme del trabajo. Y como nos llovió fuerte durante el recorrido de este sendero…</description>
                <styleUrl>#215</styleUrl>
                <Point id="213">
                    <coordinates>-78.84586,0.14782,0.0</coordinates>
                </Point>
            </Placemark>
        </Folder>
    </Document>
</kml>
